{"type":"FeatureCollection","name":"Talbain license","features":[{"type":"Feature","id":"licence:1","properties":{"OBJECTID_1":"7","ID":"23099","LIC_STATUS":"2","AREANAME":"Nergui undur","AREANAME_L":"Нэргүй өндөр","GRANT_DATE":"20251117","EXP_DATE":"20281117","HOL_REG":"2000001226","FEE_DUE_DA":"20261117","Index":"ER1","LICENSE":"XV-023099","layer":"Base_Licence_Boundary","project":"Nergui Undur","sensor":"Base / Control","dataType":"licence_boundary","plannedActual":"reference","status":"confirmed","sourceCrs":"EPSG:4326","displayCrs":"EPSG:4326","crsVerified":true},"geometry":{"type":"Polygon","coordinates":[[[113.58392525035003,49.25610541972941],[113.58392260004803,49.14810832993555],[113.57696587007888,49.14810832993555],[113.57692222957735,49.14812261027032],[113.57678885022528,49.14815880978131],[113.5766519302424,49.14818878958101],[113.57651213962356,49.148212389590185],[113.5763701699475,49.14822950009142],[113.57622671998718,49.14824003025325],[113.57608250020724,49.14824392971366],[113.57593821028024,49.14824119037871],[113.57579456966369,49.14823181044977],[113.57565229961403,49.148215840288856],[113.57551208001848,49.14819335993565],[113.57537460965057,49.14816448989933],[113.57524056030366,49.14812935968223],[113.57517427037635,49.14810832993555],[113.57117221982219,49.14810832993555],[113.57117221982219,49.14311111028957],[113.55998889027512,49.14311111028957],[113.55998889027512,49.137399999810214],[113.5454749997715,49.137399999810214],[113.5454749997715,49.1400166699334],[113.53738332987689,49.1400166699334],[113.53738332987689,49.14263610996858],[113.52786666981103,49.14263610996858],[113.52786666981103,49.1343083302653],[113.53571944020007,49.1343083302653],[113.53571944020007,49.130738889588145],[113.5433333299693,49.130738889588145],[113.5433333299693,49.128597219785945],[113.56141667014333,49.128597219785945],[113.56141667014333,49.129761390375904],[113.56432082024969,49.12943907964984],[113.56567503017857,49.129072220106934],[113.56831666997834,49.12765709010267],[113.56831666997834,49.11931667042808],[113.58392188958362,49.11931667042808],[113.58392143003005,49.1005458803881],[113.58351110984995,49.1005458803881],[113.58351110984995,49.10056943992777],[113.43709167004465,49.10056943992777],[113.43709167004465,49.100549219570894],[113.4136875602328,49.10054598021287],[113.41367952029373,49.108102229734186],[113.42318432999286,49.108106200241025],[113.42317953031113,49.11360666971211],[113.41419166980972,49.113602940223586],[113.41417954964652,49.125104510165045],[113.38469604978297,49.12508736009363],[113.38467956970646,49.13508651992703],[113.40017688955186,49.13509647991867],[113.40017955963901,49.13309601986549],[113.4086853799264,49.13310060011264],[113.40867956041347,49.13810126955798],[113.396184530092,49.1380943195972],[113.39617957033101,49.14159488029952],[113.38568853979439,49.14158799958659],[113.38567957984878,49.14708841959492],[113.37768765016494,49.147082549719926],[113.37767959044083,49.15158225002085],[113.38319302993443,49.151586359922646],[113.38317958956645,49.15958659034891],[113.37868578971745,49.159583260159366],[113.37867959968389,49.16308379028476],[113.36865496025825,49.1630757197687],[113.36867959988365,49.150576299856425],[113.3581719696607,49.15056691003491],[113.35817960040833,49.147066200045174],[113.37167379011339,49.147078080089386],[113.37167958984128,49.14404188972151],[113.37665974035474,49.14404588001338],[113.37667957040594,49.13308225034564],[113.36867359960695,49.133075740153345],[113.36867951984402,49.130069159963796],[113.36867951984402,49.13004588011336],[113.36867957020604,49.13004588011336],[113.36867958009861,49.130041000391884],[113.37466021020055,49.13004591968348],[113.37467956001376,49.119581000063135],[113.37417956033846,49.11958059986483],[113.36269106024429,49.11957082963016],[113.36267956960648,49.12507105988158],[113.35816321026402,49.12506691040966],[113.35817955993878,49.11756746027015],[113.3481628804127,49.117557619888316],[113.34817955024607,49.11055702009048],[113.35969131040576,49.110568249924825],[113.35967955986382,49.116039620032495],[113.36667149019718,49.11604588021328],[113.3666795499214,49.112036889590854],[113.37767513969595,49.11204588011333],[113.37767954007882,49.109582309675886],[113.38218717959478,49.10958569022745],[113.38217953985395,49.114084910290444],[113.39667602038207,49.11409459958617],[113.39667954032859,49.111593959993286],[113.40867539025714,49.11160059968796],[113.40867952983649,49.10804464974086],[113.41117952011882,49.10804588001338],[113.41117952011882,49.10054610971525],[113.35767951979403,49.1005458803881],[113.3576795296866,49.10256760041449],[113.33907500001135,49.10254836031862],[113.33907500001135,49.109238890062784],[113.33667988956529,49.109238890062784],[113.33668395989685,49.19221064960186],[113.37296943978788,49.192210869935764],[113.37296943978788,49.19027500009122],[113.38534167038188,49.19027500009122],[113.38534167038188,49.18432499999881],[113.38981824011978,49.18432499999881],[113.39127146000999,49.182691600037344],[113.39129783982355,49.1826627803631],[113.39130962004299,49.18265042008085],[113.39164722014311,49.18230028972664],[113.39164722014311,49.17932778035282],[113.3874833302915,49.17932778035282],[113.3874833302915,49.17794722028805],[113.36406110993232,49.17794722028805],[113.36406110993232,49.17437777961089],[113.35156944037749,49.17437777961089],[113.35156944037749,49.171997220195635],[113.33805000040729,49.171997220195635],[113.33805000040729,49.14256212004585],[113.34386782983654,49.14850159986901],[113.34393225996587,49.148571999698106],[113.34399005040052,49.148644840287204],[113.34404097001482,49.14871985004112],[113.3440848398435,49.148796750169936],[113.34412148991487,49.14887526008522],[113.34604303985452,49.153487700297205],[113.34607581025045,49.15357861006487],[113.34609890034403,49.153670799567806],[113.34611221031037,49.15376381015176],[113.34611567000218,49.15385720024966],[113.3461092704265,49.1539505202004],[113.34609304036155,49.15404333023554],[113.34583206969432,49.155184610381525],[113.34580477976681,49.15528027036822],[113.3457670397172,49.1553743898163],[113.34571905998666,49.15546649028636],[113.34566107979504,49.15555606995673],[113.34559338962333,49.15564268006568],[113.34551636988465,49.15572587005289],[113.34387668995737,49.15736050028693],[113.34390795039167,49.15772687959185],[113.35226270975636,49.158490779925614],[113.35240376032539,49.158506970420376],[113.35254273975568,49.15852955959156],[113.3526789897436,49.15855844041977],[113.35281185018675,49.1585934600202],[113.35294066997596,49.15863447000481],[113.35306483037766,49.158681250039706],[113.35318372974541,49.15873357979092],[113.35329677992252,49.158791220038836],[113.35547917012764,49.15998592980685],[113.35558507968778,49.1600480999399],[113.35568419037315,49.160114919567945],[113.35577602014723,49.16018607033095],[113.355860149926,49.16026120958719],[113.3559361498335,49.16033999019845],[113.35600368981852,49.16042201016768],[113.35952779027537,49.1650802798311],[113.36060276970215,49.16578357035553],[113.36678825007778,49.166324460405576],[113.36689906004369,49.16633616957864],[113.36700872966924,49.16635183037272],[113.36711692980248,49.16637137983537],[113.37546876996782,49.16804265024814],[113.38147050985617,49.16831470955623],[113.38161047044696,49.16832420999435],[113.38174911982605,49.168339969713884],[113.38979166964987,49.16944066975117],[113.3898681300102,49.16945278002186],[113.39747778037531,49.16945278002186],[113.39747778037531,49.171952780196705],[113.40215479011158,49.171952780196705],[113.40444212040757,49.16966902020914],[113.40587762005623,49.167948289781805],[113.40593152991619,49.16788747043046],[113.40598898040719,49.16782976003543],[113.4084296496087,49.16550931040638],[113.40850108995335,49.16544547023233],[113.40857813037644,49.16538448990235],[113.41035283001918,49.16406076968883],[113.41037793009741,49.16404239024416],[113.41165135032963,49.16312683993175],[113.41211110983988,49.162507990351514],[113.41211110983988,49.15636667028565],[113.41365555965638,49.15636667028565],[113.41365555965638,49.149108330185356],[113.41591667021817,49.149108330185356],[113.41591667021817,49.14399443969171],[113.419486109996,49.14399443969171],[113.419486109996,49.140780560374594],[113.4213888901852,49.140780560374594],[113.4213888901852,49.13518888975551],[113.42389565955716,49.13518888975551],[113.42418518010209,49.13443637034226],[113.42471456962176,49.13266020030807],[113.42474556025945,49.132572039767865],[113.42476682023266,49.13252333968046],[113.4260305601623,49.129821250150655],[113.4260305601623,49.12424443992899],[113.43483333029405,49.12424443992899],[113.43483333029405,49.129696759697765],[113.43490772041503,49.12986384024407],[113.43494173007684,49.12995091979917],[113.43496682026262,49.13003928988138],[113.43498290014077,49.13012856018497],[113.43498986988664,49.130218340404156],[113.43498771960765,49.13030822044806],[113.43497645020307,49.13039780011843],[113.43495611023639,49.130486699901326],[113.43492678963969,49.13057450970592],[113.4341526001624,49.132572219632266],[113.43423889011274,49.132572219632266],[113.43423889011274,49.14589721988085],[113.42876534994105,49.14589721988085],[113.42439274992557,49.14997967971851],[113.42399270000317,49.150533029875476],[113.42395922993455,49.15057722975541],[113.42391117016439,49.15063444012736],[113.42293610991362,49.1517314097768],[113.42293610991362,49.168025000153705],[113.41637143039725,49.168025000153705],[113.41496666957619,49.169471819568855],[113.41496666957619,49.172547220377965],[113.41238317993987,49.172547220377965],[113.41124940013981,49.173615509748004],[113.41122830024597,49.17363501964047],[113.41117705957367,49.173679539679085],[113.40854167006205,49.17587368042604],[113.40854167006205,49.17908888984044],[113.41246667030066,49.17908888984044],[113.41246667030066,49.18846241021214],[113.41291343011073,49.18920277978452],[113.4162749996915,49.18920277978452],[113.4162749996915,49.192211119947274],[113.45890614989901,49.19221137985136],[113.45890834964064,49.24054588028821],[113.462679519944,49.24054588028821],[113.462679519944,49.242545879888496],[113.45890843957284,49.242545879888496],[113.45890906010516,49.256103489784266],[113.52567952039362,49.25610452040735],[113.52567952039362,49.25419539999774],[113.52254753963734,49.25236536956618],[113.5178326000945,49.250762220100455],[113.5168674899428,49.25054444027376],[113.50014167010204,49.25054444027376],[113.50014167010204,49.248402780364074],[113.49500278025414,49.248402780364074],[113.49500278025414,49.24426388986666],[113.49508686956347,49.24426388986666],[113.49460868024642,49.24367369988141],[113.48898597042626,49.240601950319785],[113.48887916963804,49.240539350310826],[113.48877929003231,49.24047202976044],[113.48868680015573,49.240400340303495],[113.48860213977696,49.24032460030014],[113.48772221970478,49.2394769497015],[113.48772221970478,49.23955277963711],[113.48343888999284,49.23955277963711],[113.48343888999284,49.23783889035258],[113.4720166699334,49.23783889035258],[113.4720166699334,49.23623917989431],[113.4668777800855,49.2346556302532],[113.4668777800855,49.23541111023462],[113.4627388895882,49.23541111023462],[113.4627388895882,49.22999973030335],[113.45936389043129,49.230027360174574],[113.45936389043129,49.217469440262505],[113.48015833044269,49.217469440262505],[113.48015833044269,49.21140278011427],[113.48693889041749,49.21140278011427],[113.48693889041749,49.211739739897155],[113.48872499975903,49.21047155012201],[113.48872499975903,49.20104999965781],[113.49479166979984,49.20104999965781],[113.49479166979984,49.198313889674296],[113.49074721980844,49.198313889674296],[113.49074721980844,49.19450833019533],[113.48813055957771,49.19450833019533],[113.48813055957771,49.18784444016882],[113.48384721997331,49.18784444016882],[113.48384721997331,49.18403888968305],[113.4774222195598,49.18403888968305],[113.4774222195598,49.17904167003712],[113.47456666971607,49.17904167003712],[113.47456666971607,49.16809444040615],[113.46766666988094,49.16809444040615],[113.46766666988094,49.162622220439175],[113.46243055972263,49.162622220439175],[113.46243055972263,49.154191800211436],[113.46226452958444,49.154006740418765],[113.4621959499832,49.15392377975866],[113.4621363797902,49.15383788011411],[113.46208611038571,49.153749449777365],[113.46204538998279,49.15365893031543],[113.4620144200295,49.15356676959078],[113.46199334981327,49.153473410069864],[113.46198228995081,49.15337932029945],[113.46198128990466,49.15328494994054],[113.46208879036544,49.150769010181705],[113.4620957304337,49.150689789802016],[113.46210975985764,49.15061099030504],[113.46213083007376,49.15053285990359],[113.46215887003586,49.15045567019308],[113.46219377991906,49.15037970985577],[113.46243055972263,49.14991443030675],[113.46243055972263,49.135497219621016],[113.47551944026998,49.135497219621016],[113.47551944026998,49.155961110217106],[113.47994273956579,49.155961110217106],[113.4811885398193,49.15508865991376],[113.4812277799382,49.15505598034929],[113.4812277799382,49.14929722019059],[113.48527499984141,49.14929722019059],[113.48527499984141,49.14620555963893],[113.49598056005482,49.14620555963893],[113.49598056005482,49.1592916702744],[113.48670277970962,49.1592916702744],[113.48670277970962,49.16809444040615],[113.48979444026122,49.16809444040615],[113.48979444026122,49.175233329854336],[113.49431667037811,49.175233329854336],[113.49431667037811,49.183055560166],[113.49433472966416,49.183086110135946],[113.49740833003045,49.183086110135946],[113.49740833003045,49.18498889032509],[113.50193056014734,49.18498889032509],[113.50193056014734,49.18963056030219],[113.51156666996587,49.18963056030219],[113.51156666996587,49.18891667036809],[113.51799167037939,49.18891667036809],[113.51799167037939,49.21211667004832],[113.51263889027268,49.21211667004832],[113.51263889027268,49.216755560220975],[113.49407777986573,49.216755560220975],[113.49407777986573,49.226504089791945],[113.49586389010653,49.22789069959617],[113.49586389010653,49.227819440015196],[113.51085278003188,49.227819440015196],[113.51085278003188,49.23459999999005],[113.52191666971862,49.23459999999005],[113.52191666971862,49.217111109889856],[113.52013333028901,49.217111109889856],[113.52013333028901,49.205691669634916],[113.5415472197285,49.205691669634916],[113.5415472197285,49.214613890418775],[113.5429749995966,49.214613890418775],[113.5429749995966,49.2131861096513],[113.55439721965604,49.2131861096513],[113.55439721965604,49.20997500024612],[113.56260556039831,49.20997500024612],[113.56260556039831,49.19855278018673],[113.5761694403675,49.19855278018673],[113.5761694403675,49.18891667036809],[113.58369167033436,49.18891667036809],[113.58369167033436,49.204263889766764],[113.58045277997189,49.204263889766764],[113.58045277997189,49.21532778035282],[113.56653332964947,49.21532778035282],[113.56653332964947,49.219611110064704],[113.5572527802916,49.219611110064704],[113.5572527802916,49.225322219644795],[113.5479722201419,49.225322219644795],[113.5479722201419,49.23317499992635],[113.53798055975506,49.23317499992635],[113.53798055975506,49.24433560990053],[113.53983333044391,49.24520168041329],[113.53983333044391,49.24469167038433],[113.54482778017803,49.24469167038433],[113.54482778017803,49.248636270447605],[113.54601555977035,49.249830560232226],[113.54796944033751,49.249830560232226],[113.54796944033751,49.25610487024363],[113.58392525035003,49.25610541972941]]]}}],"project":"Nergui Undur","dataType":"licence_boundary"}