{"type":"FeatureCollection","name":"Talbain license","project":"External licence reference","scope":"external_reference","dataType":"licence_context","features":[{"type":"Feature","id":"context-license:1","properties":{"OBJECTID_1":"1","ID":"22954","LIC_STATUS":"2","AREANAME":"Darhan suujiin hudag","AREANAME_L":"Дархан сүүжийн худаг","GRANT_DATE":"20250704","EXP_DATE":"20280704","HOL_REG":"2000001269","FEE_DUE_DA":"20260704","Index":"CR1","LICENSE":"XV-022954","project":"External licence reference","sensor":"Base / Control","plannedActual":"reference","status":"confirmed","contextOnly":true,"displayCrs":"EPSG:4326","sourceCrs":"EPSG:4326","crsVerified":true,"layer":"Context_Licence_Boundary","dataType":"licence_context"},"geometry":{"type":"Polygon","coordinates":[[[99.78071667043804,44.77890350968926],[99.78071667043804,44.72719443997147],[99.75651110999979,44.72719443997147],[99.75651110999979,44.725291669674846],[99.78292499978897,44.725291669674846],[99.78292499978897,44.7329055603434],[99.80505278006183,44.7329055603434],[99.80505278006183,44.73742499986389],[99.80269722000077,44.73742499986389],[99.80269722000077,44.73396388972179],[99.78292499978897,44.73396388972179],[99.78292499978897,44.77888458975207],[99.79844167034685,44.7787516501686],[99.79844167034685,44.77525832990807],[99.79958056009485,44.77525832990807],[99.79958056009485,44.77874188982639],[99.80672769003093,44.778680660384225],[99.80672777996313,44.75441667009329],[99.84928055965014,44.75441667009329],[99.84928055965014,44.67357499978647],[99.82015556013107,44.67357499978647],[99.82015556013107,44.68578055992498],[99.81806666974109,44.68578055992498],[99.81806666974109,44.663577779790785],[99.80988333015165,44.663577779790785],[99.80988333015165,44.661627779798266],[99.81773332972944,44.661627779798266],[99.81773332972944,44.65625000033731],[99.81321389020894,44.65625000033731],[99.81321389020894,44.6545361101534],[99.81773332972944,44.6545361101534],[99.81773332972944,44.63902777990819],[99.83814444001393,44.63902777990819],[99.83814444001393,44.6401583302428],[99.81892499978898,44.6401583302428],[99.81892499978898,44.67138333037644],[99.82961111036451,44.67138333037644],[99.82961111036451,44.672336109923606],[99.84948610959634,44.672336109923606],[99.84948610959634,44.675288889970375],[99.8677472196585,44.675288889970375],[99.8677472196585,44.655205560088575],[99.86952221967476,44.655205560088575],[99.86952221967476,44.675288889970375],[99.93345497986348,44.675288889970375],[99.93345287994651,44.638577779840716],[99.88043889034259,44.638577779840716],[99.88043889034259,44.647175000026266],[99.88364999974777,44.647175000026266],[99.88364999974777,44.65270555991373],[99.88216388985171,44.65270555991373],[99.88216388985171,44.64830556025345],[99.87963610961884,44.64830556025345],[99.87963610961884,44.638577779840716],[99.87234722044792,44.638577779840716],[99.87234722044792,44.63723888986294],[99.8801416698023,44.63723888986294],[99.8801416698023,44.6317361100335],[99.8814194400552,44.6317361100335],[99.8814194400552,44.6376972203505],[99.89539722040547,44.6376972203505],[99.89539722040547,44.62906110988234],[99.89328332976191,44.62906110988234],[99.89328332976191,44.6277138903838],[99.88989722038048,44.6277138903838],[99.88989722038048,44.62634166973231],[99.89128610996607,44.62634166973231],[99.89128610996607,44.62504443994902],[99.89288333020158,44.62504443994902],[99.89288333020158,44.62634166973231],[99.89599444039118,44.62634166973231],[99.89599444039118,44.63664443978911],[99.89796666982602,44.63664443978911],[99.89796666982602,44.633075000011274],[99.89926667042056,44.633075000011274],[99.89926667042056,44.63746110964257],[99.93345277022922,44.63746110964257],[99.93345069998986,44.60040091956682],[99.78248610994609,44.60040091956682],[99.78248610994609,44.624327780103044],[99.78928055994993,44.624327780103044],[99.78928055994993,44.626297219840865],[99.78333332976939,44.626297219840865],[99.78333332976939,44.629233330054205],[99.79998889007527,44.629233330054205],[99.79998889007527,44.63116667010581],[99.78333332976939,44.63116667010581],[99.78333332976939,44.657825000123694],[99.78085000032729,44.657825000123694],[99.78085000032729,44.60040091956682],[99.76954722012817,44.60040091956682],[99.76954722012817,44.61579443966173],[99.75109444025628,44.61579443966173],[99.75109444025628,44.65255278038654],[99.74913610984368,44.65255278038654],[99.74913610984368,44.6296361103183],[99.74385832959831,44.6296361103183],[99.74385832959831,44.62752778018296],[99.74913610984368,44.62752778018296],[99.74913610984368,44.61579443966173],[99.7167835298361,44.61579443966173],[99.71678734026358,44.66706657016613],[99.71679178021657,44.66706657016613],[99.71679012006803,44.71053610975372],[99.72461943973542,44.71053610975372],[99.72461943973542,44.71491666966864],[99.7167899500962,44.71491666966864],[99.71678920995413,44.738272219687246],[99.71809721991082,44.738272219687246],[99.71809721991082,44.739066669990905],[99.71678919016904,44.739066669990905],[99.71678902019721,44.74444443955929],[99.75000000039978,44.74444443955929],[99.75000000039978,44.77916667020571],[99.78071667043804,44.77890350968926]]]}},{"type":"Feature","id":"context-license:2","properties":{"OBJECTID_1":"2","ID":"23101","LIC_STATUS":"2","AREANAME":"Ulaan tsav","AREANAME_L":"Улаан цав","GRANT_DATE":"20251117","EXP_DATE":"20281117","HOL_REG":"2000001225","FEE_DUE_DA":"20261117","Index":"CR2","LICENSE":"XV-023101","project":"External licence reference","sensor":"Base / Control","plannedActual":"reference","status":"confirmed","contextOnly":true,"displayCrs":"EPSG:4326","sourceCrs":"EPSG:4326","crsVerified":true,"layer":"Context_Licence_Boundary","dataType":"licence_context"},"geometry":{"type":"Polygon","coordinates":[[[106.6170368199933,46.567132949825805],[106.6170596996455,46.478269370035434],[106.65871111042946,46.47823332970444],[106.65871111042946,46.37887499978149],[106.6478333300442,46.37887499978149],[106.6478333300442,46.36638333022654],[106.65871111042946,46.36638333022654],[106.65871111042946,46.33379443986155],[106.50000000039978,46.33379443986155],[106.50000000039978,46.5444444395593],[106.55799999960038,46.5444444395593],[106.55799999960038,46.5143527803566],[106.55036110957758,46.5143527803566],[106.55036110957758,46.50323889016272],[106.56702995017213,46.50324440030886],[106.56702995017213,46.514352800141694],[106.5614948298226,46.514352800141694],[106.5614833796543,46.567132949825805],[106.6170368199933,46.567132949825805]]]}},{"type":"Feature","id":"context-license:3","properties":{"OBJECTID_1":"3","ID":"21395","LIC_STATUS":"2","AREANAME":"Artsat","AREANAME_L":"Арцат","GRANT_DATE":"20190807","EXP_DATE":"20280807","HOL_REG":"2000001225","FEE_DUE_DA":"20260807","Index":"WR1","LICENSE":"XV-021395","project":"External licence reference","sensor":"Base / Control","plannedActual":"reference","status":"confirmed","contextOnly":true,"displayCrs":"EPSG:4326","sourceCrs":"EPSG:4326","crsVerified":true,"layer":"Context_Licence_Boundary","dataType":"licence_context"},"geometry":{"type":"Polygon","coordinates":[[[92.51876111023711,46.13629523993342],[92.46840277996438,46.13629523993342],[92.46840277996438,46.1862952398335],[92.51876111023711,46.1862952398335],[92.51876111023711,46.13629523993342]]]}},{"type":"Feature","id":"context-license:4","properties":{"OBJECTID_1":"4","ID":"22905","LIC_STATUS":"2","AREANAME":"Hetsuu hutul","AREANAME_L":"Хэцүү хөтөл","GRANT_DATE":"20250512","EXP_DATE":"20280512","HOL_REG":"2000001225","FEE_DUE_DA":"20260512","Index":"WR3","LICENSE":"XV-022905","project":"External licence reference","sensor":"Base / Control","plannedActual":"reference","status":"confirmed","contextOnly":true,"displayCrs":"EPSG:4326","sourceCrs":"EPSG:4326","crsVerified":true,"layer":"Context_Licence_Boundary","dataType":"licence_context"},"geometry":{"type":"Polygon","coordinates":[[[92.45904746996484,46.13213955010019],[92.45904746996484,46.07629524023321],[92.50919166985972,46.07629524023321],[92.5104276702009,46.07629763962444],[92.51041948996755,46.03278405034371],[92.50344152970291,46.0327844703271],[92.50344064027337,46.01838398972939],[92.49801474978096,46.01838402030637],[92.4980150303694,46.010463739609975],[92.4925899195892,46.01046352017539],[92.492591259579,46.000384309888034],[92.28879888995687,46.000399100138395],[92.28878052040477,46.005228390278035],[92.29807978015776,46.00524520040574],[92.29806406000841,46.00956533037572],[92.30813904977737,46.0095826899892],[92.30812162001683,46.01462284956489],[92.31432218022451,46.014633090145026],[92.31431013020841,46.01823320040194],[92.32051109960764,46.01824310013899],[92.32050177993324,46.02112318978345],[92.32670308028298,46.02113276036863],[92.32669407986793,46.024012850013094],[92.33212049016856,46.02402094031419],[92.33211178023453,46.026901029958594],[92.34141469033574,46.02691432013984],[92.34140027959927,46.03195445993043],[92.35690656028959,46.03197493029887],[92.35688611959881,46.039895159733874],[92.36851750038238,46.03990912980254],[92.36849359010716,46.0499894102831],[92.37702481983962,46.04999890982191],[92.37700563999834,46.05863913019175],[92.383986839621,46.05864642998881],[92.38397326975064,46.065126600212466],[92.39483417975367,46.065137109689886],[92.39481470043813,46.07539498019423],[92.40816688989014,46.07539558004203],[92.40817059959357,46.13211001006897],[92.43117221962228,46.13212337039727],[92.43117221962228,46.129572220381704],[92.43573888973805,46.129572220381704],[92.43573888973805,46.13212601980001],[92.45904746996484,46.13213955010019]]]}},{"type":"Feature","id":"context-license:5","properties":{"OBJECTID_1":"5","ID":"23141","LIC_STATUS":"2","AREANAME":"Asgat uul","AREANAME_L":"Асгат уул","GRANT_DATE":"20251210","EXP_DATE":"20281210","HOL_REG":"2000001225","FEE_DUE_DA":"20261210","Index":"WR4","LICENSE":"XV-023141","project":"External licence reference","sensor":"Base / Control","plannedActual":"reference","status":"confirmed","contextOnly":true,"displayCrs":"EPSG:4326","sourceCrs":"EPSG:4326","crsVerified":true,"layer":"Context_Licence_Boundary","dataType":"licence_context"},"geometry":{"type":"Polygon","coordinates":[[[94.88958868017352,45.66599722029554],[94.88959031963759,45.623670110187504],[94.88958868017352,45.623670110187504],[94.88958868017352,45.61707979999284],[94.88959009031049,45.61707979999284],[94.88958868017352,45.59824722023308],[94.84262222033925,45.59827654982297],[94.84262222033925,45.61033055980755],[94.84156389006154,45.61033055980755],[94.84156389006154,45.598276989591454],[94.70214145996044,45.59824722023308],[94.70213902009976,45.59824657991578],[94.70445833028776,45.60992221993456],[94.64896159040512,45.60145819024336],[94.64895202971246,45.60854639030373],[94.6489741296524,45.62364069965861],[94.64757046960153,45.62363749987077],[94.64756368961264,45.60124462014318],[94.64063298962083,45.6001854400061],[94.64063990001142,45.60502152002721],[94.64065173958619,45.63293188979492],[94.64064452972133,45.63752446038558],[94.63924753004954,45.63752240993131],[94.63925621030592,45.59997498965413],[94.63847499982143,45.599855559686375],[94.59336065956683,45.57260556029843],[94.59068610997605,45.57260556029843],[94.59068610997605,45.58163888962309],[94.58853056003738,45.58163888962309],[94.58853056003738,45.57260556029843],[94.57285833014788,45.57260556029843],[94.57285833014788,45.60938610978121],[94.57113332973944,45.60938610978121],[94.57113332973944,45.57260556029843],[94.55244721986338,45.57260556029843],[94.55244721986338,45.606941669722346],[94.55014444011385,45.606941669722346],[94.55014444011385,45.57260556029843],[94.50000690959126,45.57260556029843],[94.50000704988548,45.59175156997901],[94.50861809984548,45.59176296978529],[94.50871698030448,45.60010561977856],[94.52541019972102,45.60013530999663],[94.5253776595514,45.61673859990651],[94.53372694024614,45.61675273994706],[94.53370154968684,45.6251078500473],[94.54205220994157,45.62512147027968],[94.54203788014411,45.63342335040733],[94.55866600033573,45.63344194029338],[94.55874553997472,45.65337800978739],[94.57768611032577,45.66586099998523],[94.57768611032577,45.6611194396105],[94.57910832968571,45.6611194396105],[94.57910832968571,45.66599727965081],[94.59857575976355,45.66599727965081],[94.59857448992085,45.65115278037655],[94.5909777799007,45.65115278037655],[94.5909777799007,45.643477779875695],[94.59857492968933,45.643477799660786],[94.59906666999086,45.643477779875695],[94.59906666999086,45.66599727965081],[94.59913729015386,45.666015470237824],[94.79166497036215,45.665997269758236],[94.79166497036215,45.6583335899233],[94.75000112015562,45.65833338038124],[94.75000112015562,45.65833333001922],[94.74999999960033,45.65833333001922],[94.74999999960033,45.65000027039622],[94.68333450997972,45.650000059954834],[94.68333450997972,45.6499999997003],[94.68333333006916,45.6499999997003],[94.68333333006916,45.63611138982884],[94.66861231040986,45.63611117039426],[94.66861231040986,45.636111110139666],[94.66861110981495,45.636111110139666],[94.66861110981495,45.62499999975023],[94.73333332996924,45.62499999975023],[94.73333332996924,45.62500005011225],[94.7333344604171,45.62500005011225],[94.73333447030961,45.633333330069206],[94.79861110991487,45.633333330069206],[94.79861110991487,45.633333380431225],[94.79861485019524,45.633333380431225],[94.79861485019524,45.64166667028064],[94.8250000003498,45.64166667028064],[94.8250000003498,45.66599722029554],[94.88958156024086,45.66602890970648],[94.88958868017352,45.66599722029554]]]}},{"type":"Feature","id":"context-license:6","properties":{"OBJECTID_1":"6","ID":"23117","LIC_STATUS":"2","AREANAME":"Tungalag hudag","AREANAME_L":"Тунгалаг худаг","GRANT_DATE":"20251222","EXP_DATE":"20281222","HOL_REG":"2000001225","FEE_DUE_DA":"20261222","Index":"WR5","LICENSE":"XV-023117","project":"External licence reference","sensor":"Base / Control","plannedActual":"reference","status":"confirmed","contextOnly":true,"displayCrs":"EPSG:4326","sourceCrs":"EPSG:4326","crsVerified":true,"layer":"Context_Licence_Boundary","dataType":"licence_context"},"geometry":{"type":"Polygon","coordinates":[[[93.94182261961828,46.72419853973088],[93.94182261961828,46.70966676980561],[93.94282261986808,46.70966676980561],[93.94282261986808,46.72417680041906],[93.94782262021783,46.724068100262684],[93.94782262021783,46.705666769705715],[93.94882261956832,46.705666769705715],[93.94882261956832,46.724046360051545],[93.95182262031773,46.72398114031745],[93.95182262031773,46.70766677020532],[93.95319317002884,46.70766677020532],[93.95319317002884,46.72395135027466],[93.98582261981812,46.72324200011826],[93.98582261981812,46.68366676960579],[93.98682262006793,46.68366676960579],[93.98682262006793,46.72322025990712],[94.06659166986975,46.72148610979616],[94.06659508009892,46.709914089663584],[94.06272377028586,46.707947720211166],[94.06636827017957,46.684115669802395],[94.06659508009892,46.683870789805155],[94.06659383004126,46.666666769855624],[94.03782262021781,46.666666769855624],[94.03782262021781,46.67166677020532],[94.036822619968,46.67166677020532],[94.036822619968,46.666666769855624],[94.03082262026777,46.666666769855624],[94.03082262026777,46.67766676990556],[94.02882261976816,46.67766676990556],[94.02882261976816,46.666666769855624],[94.02282262006793,46.66666677974814],[94.02282262006793,46.67066676995552],[94.02182261981812,46.67066676995552],[94.02182261981812,46.66666677974814],[93.9658226202178,46.66666677974814],[93.9658226202178,46.680666769755646],[93.964822619968,46.680666769755646],[93.964822619968,46.67166677020532],[93.96282262036772,46.67166677020532],[93.96282262036772,46.66666677974814],[93.94482262036769,46.66666677974814],[93.94482262036769,46.67366676980566],[93.94382262011788,46.67366676980566],[93.94382262011788,46.66666677974814],[93.9408226202678,46.66666678964066],[93.9408226202678,46.67566677030527],[93.93982262001794,46.67566677030527],[93.93982262001794,46.66666678964066],[93.93082261956829,46.66666678964066],[93.93082261956829,46.684666769855596],[93.928822619968,46.684666769855596],[93.928822619968,46.66666678964066],[93.90158474973646,46.66666678964066],[93.8918226197182,46.675226060234536],[93.91402279991235,46.694666769655726],[93.93082261956829,46.694666769655726],[93.93082261956829,46.695666769905586],[93.91516474016066,46.695666769905586],[93.92544223027477,46.70466677035523],[93.9278226197182,46.70466677035523],[93.9278226197182,46.705666769705715],[93.92658416962377,46.705666769705715],[93.9294611098424,46.708186109801204],[93.92233851970695,46.71461344035805],[93.93127777994567,46.724427779618395],[93.94182261961828,46.72419853973088]]]}},{"type":"Feature","id":"context-license:7","properties":{"OBJECTID_1":"7","ID":"23099","LIC_STATUS":"2","AREANAME":"Nergui undur","AREANAME_L":"Нэргүй өндөр","GRANT_DATE":"20251117","EXP_DATE":"20281117","HOL_REG":"2000001226","FEE_DUE_DA":"20261117","Index":"ER1","LICENSE":"XV-023099","project":"External licence reference","sensor":"Base / Control","plannedActual":"reference","status":"confirmed","contextOnly":true,"displayCrs":"EPSG:4326","sourceCrs":"EPSG:4326","crsVerified":true,"layer":"Context_Licence_Boundary","dataType":"licence_context"},"geometry":{"type":"Polygon","coordinates":[[[113.58392525035003,49.25610541972941],[113.58392260004803,49.14810832993555],[113.57696587007888,49.14810832993555],[113.57692222957735,49.14812261027032],[113.57678885022528,49.14815880978131],[113.5766519302424,49.14818878958101],[113.57651213962356,49.148212389590185],[113.5763701699475,49.14822950009142],[113.57622671998718,49.14824003025325],[113.57608250020724,49.14824392971366],[113.57593821028024,49.14824119037871],[113.57579456966369,49.14823181044977],[113.57565229961403,49.148215840288856],[113.57551208001848,49.14819335993565],[113.57537460965057,49.14816448989933],[113.57524056030366,49.14812935968223],[113.57517427037635,49.14810832993555],[113.57117221982219,49.14810832993555],[113.57117221982219,49.14311111028957],[113.55998889027512,49.14311111028957],[113.55998889027512,49.137399999810214],[113.5454749997715,49.137399999810214],[113.5454749997715,49.1400166699334],[113.53738332987689,49.1400166699334],[113.53738332987689,49.14263610996858],[113.52786666981103,49.14263610996858],[113.52786666981103,49.1343083302653],[113.53571944020007,49.1343083302653],[113.53571944020007,49.130738889588145],[113.5433333299693,49.130738889588145],[113.5433333299693,49.128597219785945],[113.56141667014333,49.128597219785945],[113.56141667014333,49.129761390375904],[113.56432082024969,49.12943907964984],[113.56567503017857,49.129072220106934],[113.56831666997834,49.12765709010267],[113.56831666997834,49.11931667042808],[113.58392188958362,49.11931667042808],[113.58392143003005,49.1005458803881],[113.58351110984995,49.1005458803881],[113.58351110984995,49.10056943992777],[113.43709167004465,49.10056943992777],[113.43709167004465,49.100549219570894],[113.4136875602328,49.10054598021287],[113.41367952029373,49.108102229734186],[113.42318432999286,49.108106200241025],[113.42317953031113,49.11360666971211],[113.41419166980972,49.113602940223586],[113.41417954964652,49.125104510165045],[113.38469604978297,49.12508736009363],[113.38467956970646,49.13508651992703],[113.40017688955186,49.13509647991867],[113.40017955963901,49.13309601986549],[113.4086853799264,49.13310060011264],[113.40867956041347,49.13810126955798],[113.396184530092,49.1380943195972],[113.39617957033101,49.14159488029952],[113.38568853979439,49.14158799958659],[113.38567957984878,49.14708841959492],[113.37768765016494,49.147082549719926],[113.37767959044083,49.15158225002085],[113.38319302993443,49.151586359922646],[113.38317958956645,49.15958659034891],[113.37868578971745,49.159583260159366],[113.37867959968389,49.16308379028476],[113.36865496025825,49.1630757197687],[113.36867959988365,49.150576299856425],[113.3581719696607,49.15056691003491],[113.35817960040833,49.147066200045174],[113.37167379011339,49.147078080089386],[113.37167958984128,49.14404188972151],[113.37665974035474,49.14404588001338],[113.37667957040594,49.13308225034564],[113.36867359960695,49.133075740153345],[113.36867951984402,49.130069159963796],[113.36867951984402,49.13004588011336],[113.36867957020604,49.13004588011336],[113.36867958009861,49.130041000391884],[113.37466021020055,49.13004591968348],[113.37467956001376,49.119581000063135],[113.37417956033846,49.11958059986483],[113.36269106024429,49.11957082963016],[113.36267956960648,49.12507105988158],[113.35816321026402,49.12506691040966],[113.35817955993878,49.11756746027015],[113.3481628804127,49.117557619888316],[113.34817955024607,49.11055702009048],[113.35969131040576,49.110568249924825],[113.35967955986382,49.116039620032495],[113.36667149019718,49.11604588021328],[113.3666795499214,49.112036889590854],[113.37767513969595,49.11204588011333],[113.37767954007882,49.109582309675886],[113.38218717959478,49.10958569022745],[113.38217953985395,49.114084910290444],[113.39667602038207,49.11409459958617],[113.39667954032859,49.111593959993286],[113.40867539025714,49.11160059968796],[113.40867952983649,49.10804464974086],[113.41117952011882,49.10804588001338],[113.41117952011882,49.10054610971525],[113.35767951979403,49.1005458803881],[113.3576795296866,49.10256760041449],[113.33907500001135,49.10254836031862],[113.33907500001135,49.109238890062784],[113.33667988956529,49.109238890062784],[113.33668395989685,49.19221064960186],[113.37296943978788,49.192210869935764],[113.37296943978788,49.19027500009122],[113.38534167038188,49.19027500009122],[113.38534167038188,49.18432499999881],[113.38981824011978,49.18432499999881],[113.39127146000999,49.182691600037344],[113.39129783982355,49.1826627803631],[113.39130962004299,49.18265042008085],[113.39164722014311,49.18230028972664],[113.39164722014311,49.17932778035282],[113.3874833302915,49.17932778035282],[113.3874833302915,49.17794722028805],[113.36406110993232,49.17794722028805],[113.36406110993232,49.17437777961089],[113.35156944037749,49.17437777961089],[113.35156944037749,49.171997220195635],[113.33805000040729,49.171997220195635],[113.33805000040729,49.14256212004585],[113.34386782983654,49.14850159986901],[113.34393225996587,49.148571999698106],[113.34399005040052,49.148644840287204],[113.34404097001482,49.14871985004112],[113.3440848398435,49.148796750169936],[113.34412148991487,49.14887526008522],[113.34604303985452,49.153487700297205],[113.34607581025045,49.15357861006487],[113.34609890034403,49.153670799567806],[113.34611221031037,49.15376381015176],[113.34611567000218,49.15385720024966],[113.3461092704265,49.1539505202004],[113.34609304036155,49.15404333023554],[113.34583206969432,49.155184610381525],[113.34580477976681,49.15528027036822],[113.3457670397172,49.1553743898163],[113.34571905998666,49.15546649028636],[113.34566107979504,49.15555606995673],[113.34559338962333,49.15564268006568],[113.34551636988465,49.15572587005289],[113.34387668995737,49.15736050028693],[113.34390795039167,49.15772687959185],[113.35226270975636,49.158490779925614],[113.35240376032539,49.158506970420376],[113.35254273975568,49.15852955959156],[113.3526789897436,49.15855844041977],[113.35281185018675,49.1585934600202],[113.35294066997596,49.15863447000481],[113.35306483037766,49.158681250039706],[113.35318372974541,49.15873357979092],[113.35329677992252,49.158791220038836],[113.35547917012764,49.15998592980685],[113.35558507968778,49.1600480999399],[113.35568419037315,49.160114919567945],[113.35577602014723,49.16018607033095],[113.355860149926,49.16026120958719],[113.3559361498335,49.16033999019845],[113.35600368981852,49.16042201016768],[113.35952779027537,49.1650802798311],[113.36060276970215,49.16578357035553],[113.36678825007778,49.166324460405576],[113.36689906004369,49.16633616957864],[113.36700872966924,49.16635183037272],[113.36711692980248,49.16637137983537],[113.37546876996782,49.16804265024814],[113.38147050985617,49.16831470955623],[113.38161047044696,49.16832420999435],[113.38174911982605,49.168339969713884],[113.38979166964987,49.16944066975117],[113.3898681300102,49.16945278002186],[113.39747778037531,49.16945278002186],[113.39747778037531,49.171952780196705],[113.40215479011158,49.171952780196705],[113.40444212040757,49.16966902020914],[113.40587762005623,49.167948289781805],[113.40593152991619,49.16788747043046],[113.40598898040719,49.16782976003543],[113.4084296496087,49.16550931040638],[113.40850108995335,49.16544547023233],[113.40857813037644,49.16538448990235],[113.41035283001918,49.16406076968883],[113.41037793009741,49.16404239024416],[113.41165135032963,49.16312683993175],[113.41211110983988,49.162507990351514],[113.41211110983988,49.15636667028565],[113.41365555965638,49.15636667028565],[113.41365555965638,49.149108330185356],[113.41591667021817,49.149108330185356],[113.41591667021817,49.14399443969171],[113.419486109996,49.14399443969171],[113.419486109996,49.140780560374594],[113.4213888901852,49.140780560374594],[113.4213888901852,49.13518888975551],[113.42389565955716,49.13518888975551],[113.42418518010209,49.13443637034226],[113.42471456962176,49.13266020030807],[113.42474556025945,49.132572039767865],[113.42476682023266,49.13252333968046],[113.4260305601623,49.129821250150655],[113.4260305601623,49.12424443992899],[113.43483333029405,49.12424443992899],[113.43483333029405,49.129696759697765],[113.43490772041503,49.12986384024407],[113.43494173007684,49.12995091979917],[113.43496682026262,49.13003928988138],[113.43498290014077,49.13012856018497],[113.43498986988664,49.130218340404156],[113.43498771960765,49.13030822044806],[113.43497645020307,49.13039780011843],[113.43495611023639,49.130486699901326],[113.43492678963969,49.13057450970592],[113.4341526001624,49.132572219632266],[113.43423889011274,49.132572219632266],[113.43423889011274,49.14589721988085],[113.42876534994105,49.14589721988085],[113.42439274992557,49.14997967971851],[113.42399270000317,49.150533029875476],[113.42395922993455,49.15057722975541],[113.42391117016439,49.15063444012736],[113.42293610991362,49.1517314097768],[113.42293610991362,49.168025000153705],[113.41637143039725,49.168025000153705],[113.41496666957619,49.169471819568855],[113.41496666957619,49.172547220377965],[113.41238317993987,49.172547220377965],[113.41124940013981,49.173615509748004],[113.41122830024597,49.17363501964047],[113.41117705957367,49.173679539679085],[113.40854167006205,49.17587368042604],[113.40854167006205,49.17908888984044],[113.41246667030066,49.17908888984044],[113.41246667030066,49.18846241021214],[113.41291343011073,49.18920277978452],[113.4162749996915,49.18920277978452],[113.4162749996915,49.192211119947274],[113.45890614989901,49.19221137985136],[113.45890834964064,49.24054588028821],[113.462679519944,49.24054588028821],[113.462679519944,49.242545879888496],[113.45890843957284,49.242545879888496],[113.45890906010516,49.256103489784266],[113.52567952039362,49.25610452040735],[113.52567952039362,49.25419539999774],[113.52254753963734,49.25236536956618],[113.5178326000945,49.250762220100455],[113.5168674899428,49.25054444027376],[113.50014167010204,49.25054444027376],[113.50014167010204,49.248402780364074],[113.49500278025414,49.248402780364074],[113.49500278025414,49.24426388986666],[113.49508686956347,49.24426388986666],[113.49460868024642,49.24367369988141],[113.48898597042626,49.240601950319785],[113.48887916963804,49.240539350310826],[113.48877929003231,49.24047202976044],[113.48868680015573,49.240400340303495],[113.48860213977696,49.24032460030014],[113.48772221970478,49.2394769497015],[113.48772221970478,49.23955277963711],[113.48343888999284,49.23955277963711],[113.48343888999284,49.23783889035258],[113.4720166699334,49.23783889035258],[113.4720166699334,49.23623917989431],[113.4668777800855,49.2346556302532],[113.4668777800855,49.23541111023462],[113.4627388895882,49.23541111023462],[113.4627388895882,49.22999973030335],[113.45936389043129,49.230027360174574],[113.45936389043129,49.217469440262505],[113.48015833044269,49.217469440262505],[113.48015833044269,49.21140278011427],[113.48693889041749,49.21140278011427],[113.48693889041749,49.211739739897155],[113.48872499975903,49.21047155012201],[113.48872499975903,49.20104999965781],[113.49479166979984,49.20104999965781],[113.49479166979984,49.198313889674296],[113.49074721980844,49.198313889674296],[113.49074721980844,49.19450833019533],[113.48813055957771,49.19450833019533],[113.48813055957771,49.18784444016882],[113.48384721997331,49.18784444016882],[113.48384721997331,49.18403888968305],[113.4774222195598,49.18403888968305],[113.4774222195598,49.17904167003712],[113.47456666971607,49.17904167003712],[113.47456666971607,49.16809444040615],[113.46766666988094,49.16809444040615],[113.46766666988094,49.162622220439175],[113.46243055972263,49.162622220439175],[113.46243055972263,49.154191800211436],[113.46226452958444,49.154006740418765],[113.4621959499832,49.15392377975866],[113.4621363797902,49.15383788011411],[113.46208611038571,49.153749449777365],[113.46204538998279,49.15365893031543],[113.4620144200295,49.15356676959078],[113.46199334981327,49.153473410069864],[113.46198228995081,49.15337932029945],[113.46198128990466,49.15328494994054],[113.46208879036544,49.150769010181705],[113.4620957304337,49.150689789802016],[113.46210975985764,49.15061099030504],[113.46213083007376,49.15053285990359],[113.46215887003586,49.15045567019308],[113.46219377991906,49.15037970985577],[113.46243055972263,49.14991443030675],[113.46243055972263,49.135497219621016],[113.47551944026998,49.135497219621016],[113.47551944026998,49.155961110217106],[113.47994273956579,49.155961110217106],[113.4811885398193,49.15508865991376],[113.4812277799382,49.15505598034929],[113.4812277799382,49.14929722019059],[113.48527499984141,49.14929722019059],[113.48527499984141,49.14620555963893],[113.49598056005482,49.14620555963893],[113.49598056005482,49.1592916702744],[113.48670277970962,49.1592916702744],[113.48670277970962,49.16809444040615],[113.48979444026122,49.16809444040615],[113.48979444026122,49.175233329854336],[113.49431667037811,49.175233329854336],[113.49431667037811,49.183055560166],[113.49433472966416,49.183086110135946],[113.49740833003045,49.183086110135946],[113.49740833003045,49.18498889032509],[113.50193056014734,49.18498889032509],[113.50193056014734,49.18963056030219],[113.51156666996587,49.18963056030219],[113.51156666996587,49.18891667036809],[113.51799167037939,49.18891667036809],[113.51799167037939,49.21211667004832],[113.51263889027268,49.21211667004832],[113.51263889027268,49.216755560220975],[113.49407777986573,49.216755560220975],[113.49407777986573,49.226504089791945],[113.49586389010653,49.22789069959617],[113.49586389010653,49.227819440015196],[113.51085278003188,49.227819440015196],[113.51085278003188,49.23459999999005],[113.52191666971862,49.23459999999005],[113.52191666971862,49.217111109889856],[113.52013333028901,49.217111109889856],[113.52013333028901,49.205691669634916],[113.5415472197285,49.205691669634916],[113.5415472197285,49.214613890418775],[113.5429749995966,49.214613890418775],[113.5429749995966,49.2131861096513],[113.55439721965604,49.2131861096513],[113.55439721965604,49.20997500024612],[113.56260556039831,49.20997500024612],[113.56260556039831,49.19855278018673],[113.5761694403675,49.19855278018673],[113.5761694403675,49.18891667036809],[113.58369167033436,49.18891667036809],[113.58369167033436,49.204263889766764],[113.58045277997189,49.204263889766764],[113.58045277997189,49.21532778035282],[113.56653332964947,49.21532778035282],[113.56653332964947,49.219611110064704],[113.5572527802916,49.219611110064704],[113.5572527802916,49.225322219644795],[113.5479722201419,49.225322219644795],[113.5479722201419,49.23317499992635],[113.53798055975506,49.23317499992635],[113.53798055975506,49.24433560990053],[113.53983333044391,49.24520168041329],[113.53983333044391,49.24469167038433],[113.54482778017803,49.24469167038433],[113.54482778017803,49.248636270447605],[113.54601555977035,49.249830560232226],[113.54796944033751,49.249830560232226],[113.54796944033751,49.25610487024363],[113.58392525035003,49.25610541972941]]]}},{"type":"Feature","id":"context-license:8","properties":{"OBJECTID_1":"8","ID":"23186","LIC_STATUS":"2","AREANAME":"Buural Uul","AREANAME_L":"Буурал уул","HOL_REG":"0","num":"8306","Index":"CR4","LICENSE":"XV-023186","project":"External licence reference","sensor":"Base / Control","plannedActual":"reference","status":"confirmed","contextOnly":true,"displayCrs":"EPSG:4326","sourceCrs":"EPSG:4326","crsVerified":true,"layer":"Context_Licence_Boundary","dataType":"licence_context"},"geometry":{"type":"Polygon","coordinates":[[[105.91485833334548,48.49016388845274],[105.91483888910352,48.48944444430572],[105.91426944467918,48.489452777423764],[105.91425000043722,48.48873333327674],[105.91368333311937,48.488738889288356],[105.91366388887741,48.48800833311816],[105.91195833361024,48.48804166648978],[105.91194999959288,48.48768055541336],[105.91138055516853,48.48768888853141],[105.91134166668462,48.48625000023736],[105.9102055558418,48.486263888467704],[105.9101444442108,48.484105555127314],[105.90986388900734,48.48410833313312],[105.90984166675958,48.483391666991906],[105.91126111081167,48.48337222185063],[105.91127222193558,48.483733332927045],[105.91183888925337,48.48372499980894],[105.91185000037729,48.48408611088536],[105.91468888848146,48.48405000040725],[105.91466944423951,48.48333055536091],[105.91409999981522,48.483338888478954],[105.9140611113313,48.48190000018491],[105.91462777774979,48.48189166706686],[105.91460000038978,48.480813888949854],[105.91346388864758,48.48082777807957],[105.91339166679205,48.4783111107692],[105.91282500037352,48.47831666678081],[105.91280555523224,48.47759722263379],[105.91507777781726,48.47756944437441],[105.9150555555695,48.476852777333875],[105.91562499999384,48.47684444421577],[105.91561388886993,48.476486111145164],[105.91788611145495,48.47645555577935],[105.91784722207171,48.47501944459174],[105.92125277749375,48.474977778102016],[105.92127222263503,48.47569444424329],[105.92240833347785,48.47568055511357],[105.92243888884371,48.47676111123633],[105.923008333268,48.47675277811828],[105.92302777750996,48.477472222265305],[105.92416388925216,48.477458333135644],[105.92418333349411,48.47817777818199],[105.92588611075547,48.47815555593422],[105.9259166670206,48.47923611115766],[105.9280999997153,48.47920833289828],[105.9280999997153,48.47484166660968],[105.92545555582927,48.47484166660968],[105.92545555582927,48.474491666657116],[105.9280999997153,48.474491666657116],[105.92810277772105,48.4681166667508],[105.92478055527846,48.466988889026084],[105.92611944435691,48.46533055536088],[105.9239888892759,48.46535555561445],[105.92154999983268,48.46777777792215],[105.92302777750996,48.46776111078668],[105.92306666689325,48.46919722197424],[105.92140833322804,48.469219444222006],[105.92143333348162,48.47018333309438],[105.92452500032857,48.47014444461047],[105.92453888855891,48.470591666672135],[105.92471944454678,48.470591666672135],[105.92471944454678,48.470619444032195],[105.92654444417082,48.470619444032195],[105.92654444417082,48.4711277777248],[105.92455277768858,48.4711277777248],[105.91809444480282,48.47120833359776],[105.916313888775,48.4729749995966],[105.91321388880999,48.4725583329008],[105.91209722220907,48.472572222030465],[105.91212222246264,48.47344999991759],[105.91155277803836,48.473458333035694],[105.9115694442745,48.47401666633613],[105.91100277785597,48.47402222234774],[105.91102222209793,48.474741666494765],[105.91045277767358,48.47474999961287],[105.9104638887975,48.475108333582796],[105.90989444437315,48.47511666670084],[105.90990555549706,48.47547499977145],[105.90933888907853,48.47548333288955],[105.90934722219663,48.47581111149367],[105.90588055514354,48.47585277798339],[105.90587777803711,48.47887777808705],[105.90884444451558,48.47887777808705],[105.90884444451558,48.47925277739381],[105.90587777803711,48.47925277739381],[105.90587777803711,48.47978333333424],[105.90587777803711,48.483058333275494],[105.90615277812827,48.483058333275494],[105.90615277812827,48.48386111130128],[105.90587777803711,48.48386111130128],[105.90588611115516,48.488475000321046],[105.90685555513983,48.48846388919719],[105.90686666626368,48.4888222222678],[105.90800277800588,48.48880833313814],[105.90801111112393,48.48916944421455],[105.9091472219668,48.489155555984155],[105.90916944421451,48.48987500013118],[105.91200833321807,48.48983888875375],[105.91201944434192,48.49019999983017],[105.91485833334548,48.49016388845274]]]}},{"type":"Feature","id":"context-license:9","properties":{"OBJECTID_1":"9","ID":"23188","LIC_STATUS":"2","AREANAME":"Baishingiin ereg","AREANAME_L":"Байшинтийн эрэг","HOL_REG":"0","num":"8308","Index":"WR6","LICENSE":"XV-023188","project":"External licence reference","sensor":"Base / Control","plannedActual":"reference","status":"confirmed","contextOnly":true,"displayCrs":"EPSG:4326","sourceCrs":"EPSG:4326","crsVerified":true,"layer":"Context_Licence_Boundary","dataType":"licence_context"},"geometry":{"type":"Polygon","coordinates":[[[93.37908888874131,48.500122222662526],[93.37908888874131,48.49591111120884],[93.39172500020862,48.49591111120884],[93.39172500020862,48.49169999975521],[93.40832500039852,48.49169999975521],[93.40832500039852,48.487488889200904],[93.42089722222909,48.487488889200904],[93.42089722222909,48.483274999741525],[93.4332888889711,48.483274999741525],[93.4332888889711,48.47930833301319],[93.44592222243267,48.47930833301319],[93.45007500026111,48.479319444137104],[93.4500722222553,48.475097222458885],[93.462524999729,48.475097222458885],[93.462524999729,48.47088611100526],[93.47088611100526,48.47088611100526],[93.47088611100526,48.46667499955163],[93.46667499955163,48.46667499955163],[93.46667499955163,48.45428333370893],[93.462524999729,48.45428333370893],[93.462524999729,48.437500000424734],[93.45831388917469,48.437500000424734],[93.45831388917469,48.433288888971106],[93.42907777751748,48.433288888971106],[93.42907777751748,48.42907777751748],[93.42665277810329,48.42907777751748],[93.42665277810329,48.430530555840505],[93.4251111107892,48.430530555840505],[93.4251111107892,48.433288888971106],[93.41954722202672,48.433288888971106],[93.41954722202672,48.43450833369269],[93.41645277807334,48.43450833369269],[93.41645277807334,48.43593611086288],[93.41521666711554,48.43593611086288],[93.41521666711554,48.437500000424734],[93.40832500039852,48.437500000424734],[93.40832500039852,48.44171111097904],[93.40230833356281,48.44171111097904],[93.40230833356281,48.44592222243267],[93.39587500003131,48.44592222243267],[93.39587500003131,48.4500722222553],[93.39172500020862,48.4500722222553],[93.39172500020862,48.45428333370893],[93.38348333328923,48.45428333370893],[93.38348333328923,48.45831388917469],[93.37908888874131,48.45831388917469],[93.37908888874131,48.462524999729],[93.37091111145867,48.462524999729],[93.37091111145867,48.46667499955163],[93.36670000000504,48.46667499955163],[93.36670000000504,48.47088611100526],[93.3582749999913,48.47088611100526],[93.3582749999913,48.475097222458885],[93.35430833326302,48.475097222458885],[93.35430833326302,48.47930833301319],[93.34588611125508,48.47930833301319],[93.34588611125508,48.483274999741525],[93.34167499980146,48.483274999741525],[93.34167499980146,48.487488889200904],[93.33752499997883,48.487488889200904],[93.33752499997883,48.49169999975521],[93.32928333305944,48.49169999975521],[93.32928333305944,48.49591111120884],[93.32507222250513,48.49591111120884],[93.32507222250513,48.500122222662526],[93.37908888874131,48.500122222662526]]]}},{"type":"Feature","id":"context-license:10","properties":{"OBJECTID_1":"10","ID":"23194","LIC_STATUS":"2","AREANAME":"Huh tologi hutul","AREANAME_L":"Хөх толгойн хөтөл","HOL_REG":"0","num":"8314","Index":"CR5","LICENSE":"XV-023194","project":"External licence reference","sensor":"Base / Control","plannedActual":"reference","status":"confirmed","contextOnly":true,"displayCrs":"EPSG:4326","sourceCrs":"EPSG:4326","crsVerified":true,"layer":"Context_Licence_Boundary","dataType":"licence_context"},"geometry":{"type":"Polygon","coordinates":[[[105.92808055547334,48.53024444442565],[105.92808055547334,48.52427777809703],[105.92532222234274,48.52427500009122],[105.92532222234274,48.52465277740379],[105.92369722204921,48.52465277740379],[105.92369722204921,48.52314166635489],[105.91854722197678,48.52313611124259],[105.91854722197678,48.522380555718144],[105.92261666682577,48.52238611083038],[105.92261666682577,48.52216388925211],[105.92370000005502,48.52216388925211],[105.92370000005502,48.522763889042324],[105.92694722263627,48.522766667048074],[105.92694999974276,48.52238888883619],[105.9280916665972,48.52238888883619],[105.9280916665972,48.519366666738335],[105.9250888887413,48.51936388873253],[105.9250888887413,48.51860833320808],[105.9280916665972,48.518611111213886],[105.9280916665972,48.51256944412461],[105.92479722241393,48.51256666701812],[105.92479722241393,48.512188888806236],[105.92317500012621,48.512188888806236],[105.92317500012621,48.511055555969165],[105.92209166689696,48.511052777963414],[105.92209166689696,48.51143055527598],[105.9197388893383,48.51143055527598],[105.9197388893383,48.514450000267345],[105.91862499984393,48.514450000267345],[105.91862499984393,48.51407222205546],[105.91775555597417,48.51407222205546],[105.91775833308066,48.51331666653101],[105.91938333337418,48.51331666653101],[105.91938611137999,48.51067499975147],[105.91721944402218,48.510672222644985],[105.91721944402218,48.511049999957606],[105.91559722263378,48.511049999957606],[105.91559999974027,48.50840555517226],[105.91397777745254,48.50840555517226],[105.91397777745254,48.50689444412336],[105.91181388899986,48.50689166701687],[105.91181388899986,48.50651388880499],[105.90910833348289,48.50651111079918],[105.90910833348289,48.506133333486616],[105.90822499958415,48.506133333486616],[105.90823055559571,48.50403055576561],[105.90937499955663,48.50403055576561],[105.90937777756244,48.50311388849519],[105.9058750000313,48.503111111388705],[105.9058722220255,48.51406388893736],[105.9063861108304,48.51406388893736],[105.9063861108304,48.514819444461864],[105.91342500016367,48.5148249995741],[105.91342222215786,48.515202777786044],[105.91613055568064,48.515202777786044],[105.91612777767489,48.51709166704683],[105.91504444444564,48.51709166704683],[105.91504166643983,48.51860277809578],[105.91892500018866,48.51860555520227],[105.91892500018866,48.51913611114264],[105.91666666673336,48.51913611114264],[105.91666388872756,48.51956666696816],[105.91368611112517,48.51956666696816],[105.91368611112517,48.51709166704683],[105.91179722186433,48.51708888904108],[105.9117916667521,48.519733332927046],[105.90586944401969,48.51972777781475],[105.9058666669132,48.53024444442565],[105.92808055547334,48.53024444442565]]]}},{"type":"Feature","id":"context-license:11","properties":{"OBJECTID_1":"11","ID":"23223","LIC_STATUS":"2","AREANAME":"Adag shandin hudag","AREANAME_L":"Адаг шандын худаг","HOL_REG":"0","num":"8405","Index":"CR6","LICENSE":"XV-023223","project":"External licence reference","sensor":"Base / Control","plannedActual":"reference","status":"confirmed","contextOnly":true,"displayCrs":"EPSG:4326","sourceCrs":"EPSG:4326","crsVerified":true,"layer":"Context_Licence_Boundary","dataType":"licence_context"},"geometry":{"type":"Polygon","coordinates":[[[100.4999999998002,44.48645555547955],[100.4999999998002,44.45366111067176],[100.48700555526221,44.45366111067176],[100.48700555526221,44.45289166691697],[100.4999999998002,44.45289166691697],[100.4999999998002,44.44376944410459],[100.47604166658971,44.44376944410459],[100.47604166658971,44.44191666622123],[100.4999999998002,44.44191666622123],[100.4999999998002,44.421474999671545],[100.4498111107942,44.421474999671545],[100.4498111107942,44.446547222376466],[100.44826944437943,44.446547222376466],[100.44826944437943,44.421474999671545],[100.42837500000633,44.421474999671545],[100.42837500000633,44.42478888899609],[100.42752500037852,44.42478888899609],[100.42752500037852,44.421474999671545],[100.4103472226463,44.421474999671545],[100.4103472226463,44.42319444406837],[100.40960277734638,44.42319444406837],[100.40960277734638,44.421474999671545],[100.39062777735012,44.421474999671545],[100.39062777735012,44.44580555598168],[100.40204166698942,44.44580555598168],[100.40204166698942,44.44889999993512],[100.42512222231278,44.44889999993512],[100.42512222231278,44.4527999999201],[100.41969722214913,44.4527999999201],[100.41969722214913,44.44980277807582],[100.39062777735012,44.44980277807582],[100.39062777735012,44.48645555547955],[100.40493888871879,44.48645555547955],[100.40493888871879,44.48170277786096],[100.40588611135502,44.48170277786096],[100.40588611135502,44.48645555547955],[100.4212138892097,44.48645555547955],[100.4212138892097,44.47911666670086],[100.42210833333297,44.47911666670086],[100.42210833333297,44.48645555547955],[100.4999999998002,44.48645555547955]]]}},{"type":"Feature","id":"context-license:12","properties":{"OBJECTID_1":"12","ID":"23222","LIC_STATUS":"2","AREANAME":"Buduunkhad","AREANAME_L":"Бүдүүн хад","HOL_REG":"0","num":"8404","Index":"WR7","LICENSE":"XV-023222","project":"External licence reference","sensor":"Base / Control","plannedActual":"reference","status":"confirmed","contextOnly":true,"displayCrs":"EPSG:4326","sourceCrs":"EPSG:4326","crsVerified":true,"layer":"Context_Licence_Boundary","dataType":"licence_context"},"geometry":{"type":"Polygon","coordinates":[[[96.70943055557575,45.99182499972403],[96.70943055557575,45.98756388866258],[96.71041666669589,45.98756388866258],[96.71041666669589,45.99115000007248],[96.72203611077794,45.99115000007248],[96.72228055550329,45.952613888520204],[96.72155277733884,45.952613888520204],[96.72155277733884,45.95151944416705],[96.67600833361774,45.951550000432235],[96.67141111083413,45.95368888863135],[96.67141111083413,45.96811388924465],[96.67028611111522,45.96811388924465],[96.67028611111522,45.95421388856016],[96.65379722216414,45.96189166706682],[96.65379722216414,45.97271944424699],[96.65256666631865,45.97271944424699],[96.65256666631865,45.962463888597654],[96.64180277787597,45.96747500007126],[96.64180277787597,45.97684166670962],[96.64057222203047,45.97684166670962],[96.64057222203047,45.968047222501355],[96.60756944477413,45.98341388883995],[96.60751388915475,45.99145833353532],[96.61640000035976,45.99145833353532],[96.61640000035976,45.99224166641983],[96.60750833314313,45.99224166641983],[96.60747499977145,45.9970222222978],[96.60922777753996,45.9970222222978],[96.60922777753996,45.997805555182254],[96.60746944465922,45.997805555182254],[96.60745000041726,46.00042222260754],[96.67639722205422,46.00042499971403],[96.67639722205422,45.99693888931836],[96.67740555542213,45.99693888931836],[96.67740555542213,46.00042499971403],[96.69037222260005,46.00042499971403],[96.69037222260005,45.981824999923845],[96.69160000043973,45.981824999923845],[96.69160000043973,46.00042499971403],[96.72197500004626,46.00042499971403],[96.7220305556657,45.99182499972403],[96.70943055557575,45.99182499972403]]]}},{"type":"Feature","id":"context-license:13","properties":{"OBJECTID_1":"13","ID":"23236","LIC_STATUS":"2","AREANAME":"Gashuunhudag","AREANAME_L":"Гашуун худаг","HOL_REG":"0","num":"8418","Index":"CR7","LICENSE":"XV-023236","project":"External licence reference","sensor":"Base / Control","plannedActual":"reference","status":"confirmed","contextOnly":true,"displayCrs":"EPSG:4326","sourceCrs":"EPSG:4326","crsVerified":true,"layer":"Context_Licence_Boundary","dataType":"licence_context"},"geometry":{"type":"Polygon","coordinates":[[[100.99999999970026,44.66666666683324],[100.99999999970026,44.63808333347913],[100.99490833325302,44.63808333347913],[100.99490833325302,44.63635277795839],[100.99999999970026,44.63635277795839],[100.99999999970026,44.616325000098755],[100.95994722198674,44.616325000098755],[100.95994722198674,44.6131638885027],[100.93992777814452,44.6131638885027],[100.93992777814452,44.62016111134625],[100.89983055593547,44.62016111134625],[100.89983055593547,44.61925277809331],[100.93921388910974,44.61925277809331],[100.93921388910974,44.612355555364616],[100.96055555579431,44.612355555364616],[100.96055555579431,44.615216666615936],[100.99999999970026,44.615216666615936],[100.99999999970026,44.52892777749497],[100.97091388866511,44.52892777749497],[100.97091388866511,44.54964166702939],[100.96786666631368,44.54964166702939],[100.96786666631368,44.52892777749497],[100.86680833353785,44.52892777749497],[100.8668111115436,44.557691666837],[100.8804416663499,44.55759166672209],[100.8804416663499,44.576144444010936],[100.79240833347785,44.576144444010936],[100.79240833347785,44.58406388923714],[100.78936388913223,44.58406388923714],[100.78936388913223,44.576144444010936],[100.74945833313564,44.576144444010936],[100.74945833313564,44.66666666683324],[100.82257777774231,44.66666666683324],[100.82257777774231,44.66399999980018],[100.82336388863263,44.66399999980018],[100.82336388863263,44.66666666683324],[100.86218888850647,44.66666666683324],[100.86218888850647,44.66281944446183],[100.86323888926341,44.66281944446183],[100.86323888926341,44.66666666683324],[100.92827499979148,44.66666666683324],[100.92827499979148,44.65470833302322],[100.92973888923842,44.65470833302322],[100.92973888923842,44.66666666683324],[100.93838333372395,44.66666666683324],[100.93838333372395,44.65656944402468],[100.9405111107992,44.65656944402468],[100.9405111107992,44.66666666683324],[100.97906944459925,44.66666666683324],[100.97906944459925,44.655283333459124],[100.97970277776102,44.655283333459124],[100.97970277776102,44.66666666683324],[100.99999999970026,44.66666666683324]]]}},{"type":"Feature","id":"context-license:14","properties":{"OBJECTID_1":"14","ID":"23237","LIC_STATUS":"2","AREANAME":"Huh tolgoi","AREANAME_L":"Хөх толгой","HOL_REG":"0","num":"8419","Index":"CR8","LICENSE":"XV-023237","project":"External licence reference","sensor":"Base / Control","plannedActual":"reference","status":"confirmed","contextOnly":true,"displayCrs":"EPSG:4326","sourceCrs":"EPSG:4326","crsVerified":true,"layer":"Context_Licence_Boundary","dataType":"licence_context"},"geometry":{"type":"Polygon","coordinates":[[[100.85783055533591,44.50872222255259],[100.8577944448578,44.505544444720385],[100.90630555595669,44.505544444720385],[100.90630555595669,44.50038611152985],[100.92138611108021,44.50038611152985],[100.92138611108021,44.487183333644],[100.94380555588174,44.487183333644],[100.9649555554546,44.47540833292828],[100.99353611080295,44.47540833292828],[100.99352777768485,44.47490000013494],[100.99999999970026,44.47490000013494],[100.99999999970026,44.41648888845151],[100.92516111069676,44.41648888845151],[100.92516111069676,44.4275777774925],[100.93165833296575,44.4275777774925],[100.93165833296575,44.42813055568064],[100.92516111069676,44.42813055568064],[100.92516111069676,44.4626388888737],[100.7501499999226,44.462527777634875],[100.75014722191679,44.52024722253134],[100.80847499972151,44.52024722253134],[100.80847499972151,44.50873055567064],[100.85783055533591,44.50872222255259]]]}},{"type":"Feature","id":"context-license:15","properties":{"OBJECTID_1":"15","ID":"23121","LIC_STATUS":"2","AREANAME":"Tsahiurt uul","AREANAME_L":"Цахиурт уул","GRANT_DATE":"20251215","EXP_DATE":"20281215","HOL_REG":"2000001226","FEE_DUE_DA":"20261215","Index":"CR3","LICENSE":"XV-023121","project":"External licence reference","sensor":"Base / Control","plannedActual":"reference","status":"confirmed","contextOnly":true,"displayCrs":"EPSG:4326","sourceCrs":"EPSG:4326","crsVerified":true,"layer":"Context_Licence_Boundary","dataType":"licence_context"},"geometry":{"type":"Polygon","coordinates":[[[99.07511330013875,45.24179267958857],[99.07511330013875,45.20168056010982],[99.07028056019976,45.20168056010982],[99.07028056019976,45.2059638898217],[99.06338056036464,45.2059638898217],[99.06338056036464,45.20084722042293],[99.07511330013875,45.20084722042293],[99.07511330013875,45.192079540038776],[99.02491948014995,45.192076989561485],[99.02491948014995,45.19973573031973],[99.01941948012495,45.19973573031973],[99.01941948012495,45.19207670987231],[99.00011252956966,45.192075729611304],[99.00011252956966,45.17873572957029],[98.97576110988734,45.17873572957029],[98.97576110988734,45.1848388896031],[98.97024187965906,45.1848388896031],[98.9833974602247,45.21874261038323],[99.00413959026992,45.22464037964983],[99.00413878987331,45.22464121961667],[99.0041408502201,45.224641799679375],[98.99180833009041,45.23757253984087],[98.99180833009041,45.24179267958857],[99.07511330013875,45.24179267958857]]]}},{"type":"Feature","id":"context-license:16","properties":{"OBJECTID_1":"16","ID":"22904","LIC_STATUS":"2","AREANAME":"Nudengiin har","AREANAME_L":"Нүдэнгийн хар","GRANT_DATE":"20250515","EXP_DATE":"20280515","HOL_REG":"2000001226","FEE_DUE_DA":"20260515","Index":"WR2","LICENSE":"XV-022904","project":"External licence reference","sensor":"Base / Control","plannedActual":"reference","status":"confirmed","contextOnly":true,"displayCrs":"EPSG:4326","sourceCrs":"EPSG:4326","crsVerified":true,"layer":"Context_Licence_Boundary","dataType":"licence_context"},"geometry":{"type":"Polygon","coordinates":[[[96.22161366963519,45.25874518973876],[96.22161538014575,45.25750015031173],[96.22390950032326,45.257501709736175],[96.22391143026834,45.25606145986853],[96.22544080025278,45.256062469807205],[96.22544267983585,45.25462222983208],[96.2262073499893,45.25462272985516],[96.22620827988828,45.25390260042474],[96.22697294014915,45.25390310044776],[96.22697386015557,45.25318298001059],[96.2277385096246,45.25318346024852],[96.2277394197385,45.25246333981136],[96.22850406021428,45.252463820049286],[96.22851310019945,45.24526260038874],[96.23337363998155,45.2452655402725],[96.23337363998155,45.214300160024436],[96.14602607973984,45.21432411976235],[96.14601666024072,45.21781643008421],[96.14448831008752,45.21781435984491],[96.14449783031068,45.21432393989795],[96.11469686976477,45.21431643955208],[96.11466928036305,45.22281075031594],[96.11314079980815,45.222808250200615],[96.11316862033561,45.214315839704284],[96.09177307976387,45.214305369797046],[96.09169747016216,45.23501328963164],[96.12991753026989,45.23507660010506],[96.12991537999085,45.23579671964296],[96.09169483964519,45.23573341006886],[96.09161071975899,45.25874518973876],[96.1397882804049,45.25874518973876],[96.1397940495558,45.256694569998444],[96.14132344022465,45.256696710384915],[96.14131773042897,45.25874518973876],[96.14820024024897,45.25874518973876],[96.14822485019675,45.249504859861474],[96.14975405020931,45.24950688963128],[96.14972968038052,45.25874518973876],[96.16272998040432,45.25874518973876],[96.16274873036969,45.25096349007305],[96.16427796005985,45.2509653103009],[96.16425943042844,45.25874518973876],[96.17802445006839,45.25874518973876],[96.1780364398299,45.2531412002063],[96.17956573966723,45.253142819885284],[96.17955389019994,45.25874518973876],[96.19484835986395,45.25874518973876],[96.1948626500913,45.25099755998946],[96.19639188967403,45.25099896023386],[96.19637779999556,45.25874518973876],[96.22161366963519,45.25874518973876]]]}},{"type":"Feature","id":"context-license:17","properties":{"OBJECTID_1":"17","ID":"20915","LIC_STATUS":"2","AREANAME":"Tsagaan jalga-2","AREANAME_L":"Цагаан жалга-2","GRANT_DATE":"20170925","EXP_DATE":"20271129","HOL_REG":"2000001093","FEE_DUE_DA":"20261129","Index":"SR1","LICENSE":"XV-020915","project":"External licence reference","sensor":"Base / Control","plannedActual":"reference","status":"confirmed","contextOnly":true,"displayCrs":"EPSG:4326","sourceCrs":"EPSG:4326","crsVerified":true,"layer":"Context_Licence_Boundary","dataType":"licence_context"},"geometry":{"type":"Polygon","coordinates":[[[101.33331299030232,42.937499999725276],[101.33331299030232,42.941711430438204],[101.33752441022341,42.941711430438204],[101.33752441022341,42.95428467030132],[101.34167480035183,42.95428467030132],[101.34167480035183,42.95831299005249],[101.34588623016543,42.95831299005249],[101.34588623016543,42.966674800102],[101.35430907990019,42.966674800102],[101.35430907990019,42.97088622991561],[101.4459228503593,42.97088622991561],[101.4459228503593,42.96252440997358],[101.4417114304382,42.96252440997358],[101.4417114304382,42.95831299005249],[101.43749999972528,42.95831299005249],[101.43749999972528,42.95428467030132],[101.43328856991161,42.95428467030132],[101.43328856991161,42.945922850359295],[101.42907714999052,42.945922850359295],[101.42907714999052,42.937499999725276],[101.33331299030232,42.937499999725276]]]}},{"type":"Feature","id":"context-license:18","properties":{"OBJECTID_1":"18","ID":"23255","LIC_STATUS":"2","AREANAME":"Hongor hairhanii nuruu","AREANAME_L":"Хонгор хайрханы нуруу","HOL_REG":"0","num":"8511","LICENSE":"XV-023255","project":"External licence reference","sensor":"Base / Control","plannedActual":"reference","status":"confirmed","contextOnly":true,"displayCrs":"EPSG:4326","sourceCrs":"EPSG:4326","crsVerified":true,"layer":"Context_Licence_Boundary","dataType":"licence_context"},"geometry":{"type":"Polygon","coordinates":[[[91.58851944411714,47.65151388925466],[91.58851944411714,47.64780277747627],[91.59751388855517,47.64780277747627],[91.59751388855517,47.65089722232898],[91.60027777769733,47.65089722232898],[91.60027777769733,47.6463472220467],[91.6081555555345,47.6463472220467],[91.6081555555345,47.6419138890148],[91.61314722186688,47.6419138890148],[91.61314722186688,47.62473055527096],[91.61451666631115,47.62473055527096],[91.61451666631115,47.63450000037477],[91.62283055598544,47.63450000037477],[91.62283055598544,47.63725000038727],[91.63006388863761,47.63725000038727],[91.63006388863761,47.62917222232028],[91.6456500003473,47.62917222232028],[91.6456500003473,47.622016666635886],[91.65286388875751,47.622016666635886],[91.65286388875751,47.62156388856266],[91.65041388908975,47.621516666960645],[91.65286388875751,47.61996666652851],[91.65286388875751,47.61577777822197],[91.65945277802336,47.61577777822197],[91.65945277802336,47.61550000012494],[91.6581111109391,47.61546666675332],[91.65945277802336,47.614780555977916],[91.65945277802336,47.610308333562784],[91.65881666685573,47.610308333562784],[91.65881666685573,47.5959583337102],[91.65675833363025,47.5959583337102],[91.65675833363025,47.59397500034606],[91.65953055589051,47.59397500034606],[91.65953055589051,47.60932222244264],[91.66924166646982,47.60932222244264],[91.66924166646982,47.58794444438064],[91.6676138890698,47.58794444438064],[91.6676138890698,47.58658055594793],[91.67063055515604,47.58658055594793],[91.67063055515604,47.60932222244264],[91.6801277781745,47.60932222244264],[91.6801277781745,47.60632777770485],[91.69098055560823,47.60632777770485],[91.69098055560823,47.60932222244264],[91.69680000021987,47.60932222244264],[91.69680000021987,47.60552777768487],[91.74253333304694,47.60551388855515],[91.74253333304694,47.604858333145614],[91.74357499978646,47.604858333145614],[91.74357499978646,47.60551666656096],[91.7496666664835,47.60552777768487],[91.7496666664835,47.59769166633737],[91.74330555570691,47.59769166633737],[91.74330555570691,47.599952777798535],[91.742236110708,47.599952777798535],[91.742236110708,47.59911944440688],[91.74291944437692,47.59911944440688],[91.74291944437692,47.59769166633737],[91.73881388904982,47.59769166633737],[91.73881388904982,47.60117222252012],[91.73777500031605,47.60117222252012],[91.73777500031605,47.600338889128466],[91.73842777771983,47.600338889128466],[91.73842777771983,47.59769166633737],[91.73658333295452,47.59769166633737],[91.73658333295452,47.598166666658415],[91.7355444442208,47.598166666658415],[91.7355444442208,47.59739444399844],[91.7496666664835,47.59739444399844],[91.7496666664835,47.58446111109146],[91.73672777756497,47.58446111109146],[91.73672777756497,47.583605555452095],[91.73782222191807,47.583605555452095],[91.73782222191807,47.5841277773751],[91.7496666664835,47.5841277773751],[91.7496666664835,47.57327777794717],[91.74448333303945,47.57327777794717],[91.74448333303945,47.57237499980647],[91.745722222003,47.57237499980647],[91.745722222003,47.57304166633986],[91.7496666664835,47.57304166633986],[91.7496666664835,47.55552777778479],[91.7458888888612,47.552422221808115],[91.7457916667521,47.55239444444811],[91.74565277815327,47.55234999995258],[91.74550000042473,47.55229166632739],[91.74535555581429,47.552227777589906],[91.74521388920965,47.55215833374018],[91.74508333372893,47.55208055587303],[91.74495833336044,47.55200000000008],[91.74484166700938,47.55191388901483],[91.74473333377637,47.55181944401221],[91.74470555551704,47.55179444465796],[91.74360555515233,47.55075555592424],[91.74353333329674,47.55068333316933],[91.7434666665535,47.55060833330799],[91.74331666683076,47.55043333333174],[91.70368611092533,47.55043333333174],[91.70368611092533,47.553052777863456],[91.70211666625119,47.553052777863456],[91.70211666625119,47.55183888915349],[91.7029722218906,47.55183888915349],[91.7029722218906,47.55043333333174],[91.68510277737136,47.55043333333174],[91.68510277737136,47.56178611134004],[91.68670555541712,47.56178611134004],[91.68670555541712,47.56267777745751],[91.68510277737136,47.56267777745751],[91.68510277737136,47.57980277757616],[91.68269166708683,47.57980277757616],[91.68269166708683,47.578294444533014],[91.68443333373142,47.578294444533014],[91.68443333373142,47.55043333333174],[91.67727777804708,47.55043333333174],[91.67727777804708,47.552672222545084],[91.67684722222157,47.552672222545084],[91.67684722222157,47.557763888992326],[91.67541944415211,47.557763888992326],[91.67541944415211,47.556480555533255],[91.67620277793588,47.556480555533255],[91.67620277793588,47.552672222545084],[91.66192222193308,47.552672222545084],[91.66192222193308,47.55050555518727],[91.66184444406588,47.55048333293951],[91.66181666670587,47.55047499982146],[91.66170833347286,47.550441666449785],[91.6616861112251,47.55043333333174],[91.64786388930713,47.55043333333174],[91.64786388930713,47.572163888452735],[91.65456666691819,47.572163888452735],[91.65456666691819,47.57144722231152],[91.65599444408838,47.57144722231152],[91.65599444408838,47.57206944434944],[91.65789722247888,47.57206944434944],[91.65789722247888,47.5676555555595],[91.6585194445168,47.5676555555595],[91.6585194445168,47.56502499990387],[91.65997222194056,47.56502499990387],[91.65997222194056,47.56621388925964],[91.65911388919471,47.56621388925964],[91.65911388919471,47.568888888511424],[91.6581083329333,47.568888888511424],[91.6581083329333,47.5723166670806],[91.6562027774363,47.5723166670806],[91.6562027774363,47.57327499994136],[91.6550972219593,47.57327499994136],[91.6550972219593,47.57254166666462],[91.65123055534593,47.57254166666462],[91.65123055534593,47.575780555228505],[91.6507555559242,47.575780555228505],[91.6507555559242,47.579944444180796],[91.6464999999751,47.579944444180796],[91.6464999999751,47.58296944428446],[91.64551944486652,47.58296944428446],[91.64551944486652,47.58315555538462],[91.64467222234526,47.58315555538462],[91.64467222234526,47.58779166665215],[91.6481666667583,47.58779166665215],[91.6481666667583,47.589752777768524],[91.64455833310063,47.589752777768524],[91.64455833310063,47.590325000198675],[91.64099999995011,47.590325000198675],[91.64099999995011,47.59648055563321],[91.63659722228402,47.59648055563321],[91.63659722228402,47.59862222183813],[91.63362222178819,47.59862222183813],[91.63362222178819,47.59969444484278],[91.63046666710306,47.59969444484278],[91.63046666710306,47.6012333332518],[91.62998888877627,47.6012333332518],[91.62998888877627,47.60377499991637],[91.63158333370393,47.60377499991637],[91.63158333370393,47.60301944439192],[91.63327222183563,47.60301944439192],[91.63327222183563,47.60433611122261],[91.63158333370393,47.60433611122261],[91.63158333370393,47.60415833324055],[91.62776111068678,47.60415833324055],[91.62776111068678,47.60551666656096],[91.6259472221866,47.60551666656096],[91.6259472221866,47.60575277816821],[91.6242027775362,47.60575277816821],[91.62419166641234,47.60576666639861],[91.62419166641234,47.60745000031733],[91.6221999999301,47.60745000031733],[91.6221999999301,47.60725555519974],[91.62091111135874,47.607749999762746],[91.62088888911103,47.60775833378011],[91.62086111085165,47.607766666898215],[91.62086111085165,47.6112861106655],[91.6192472225813,47.6112861106655],[91.6192472225813,47.61235555566441],[91.61722499983392,47.61235555566441],[91.61722499983392,47.61348611139499],[91.615083333629,47.61348611139499],[91.615083333629,47.6146166662262],[91.61365555555949,47.6146166662262],[91.61365555555949,47.61598611067052],[91.61103888903358,47.61598611067052],[91.61103888903358,47.61759166672209],[91.60931388862514,47.61759166672209],[91.60931388862514,47.61836388848275],[91.60711111078916,47.61836388848275],[91.60711111078916,47.6219333336565],[91.60806388853769,47.6219333336565],[91.60806388853769,47.627227777440055],[91.6061611110465,47.627227777440055],[91.6061611110465,47.62889444422325],[91.60478055547833,47.62889444422325],[91.60478055547833,47.63241944400221],[91.60559444462797,47.63241944400221],[91.60559444462797,47.63757500008626],[91.59751111144868,47.63757500008626],[91.59751111144868,47.63618888850647],[91.59931944483657,47.63618888850647],[91.59931944483657,47.637063889287106],[91.60446388889739,47.637063889287106],[91.60446388889739,47.63286666696314],[91.60339999991015,47.63286666696314],[91.60339999991015,47.63157500038602],[91.59861944403218,47.63157500038602],[91.59861944403218,47.627719443997194],[91.59914444486031,47.627719443997194],[91.59914444486031,47.626291666827],[91.60009722260878,47.626291666827],[91.60009722260878,47.62457777754247],[91.60166666638361,47.62457777754247],[91.60166666638361,47.6232944440834],[91.60019166671213,47.6232944440834],[91.60019166671213,47.62005833352532],[91.60042777742007,47.62005833352532],[91.60042777742007,47.61858333295453],[91.60095277734888,47.61858333295453],[91.60095277734888,47.615963889322074],[91.60171388888494,47.615963889322074],[91.60171388888494,47.614869444069654],[91.60376111098657,47.614869444069654],[91.60376111098657,47.61429999964531],[91.60552222187312,47.61429999964531],[91.60552222187312,47.61287222247512],[91.607330555261,47.61287222247512],[91.607330555261,47.61234722254636],[91.60851944461672,47.61234722254636],[91.60851944461672,47.611680555113594],[91.6094222218581,47.611680555113594],[91.6094222218581,47.61053888915848],[91.61084999992761,47.61053888915848],[91.61084999992761,47.60939722230404],[91.61251666671086,47.60939722230404],[91.61251666671086,47.60887500038103],[91.6141111107392,47.60887500038103],[91.6141111107392,47.60635555596417],[91.61482499977399,47.60635555596417],[91.61482499977399,47.605286110965324],[91.61589722187932,47.605286110965324],[91.61589722187932,47.60409444450306],[91.61803888898362,47.60409444450306],[91.61803888898362,47.60195277739882],[91.62232222229278,47.60195277739882],[91.62232222229278,47.599216666515986],[91.62374722235649,47.599216666515986],[91.62374722235649,47.59636111127634],[91.62458055574808,47.59636111127634],[91.62458055574808,47.59517222192056],[91.62922222212791,47.59517222192056],[91.62922222212791,47.59184166635987],[91.63386111140125,47.59184166635987],[91.63386111140125,47.58494166652474],[91.63528888857138,47.58494166652474],[91.63528888857138,47.58363055570561],[91.6367166666409,47.58363055570561],[91.6367166666409,47.58089444482283],[91.63755000003255,47.58089444482283],[91.63755000003255,47.57958611111019],[91.63861944413208,47.57958611111019],[91.63861944413208,47.57720833329802],[91.64111944430698,47.57720833329802],[91.64111944430698,47.57506666709304],[91.6448055558318,47.57506666709304],[91.6448055558318,47.57233055531094],[91.6470722224052,47.57233055531094],[91.6470722224052,47.55043333333174],[91.62787777793716,47.55043333333174],[91.62787777793716,47.55779166635239],[91.62649722236898,47.55779166635239],[91.62649722236898,47.5561333335865],[91.62745000011745,47.5561333335865],[91.62745000011745,47.55043333333174],[91.62208333357904,47.55043333333174],[91.62208333357904,47.551458332935795],[91.6196722223952,47.551458332935795],[91.6196722223952,47.55043333333174],[91.61169999955541,47.55043333333174],[91.61169999955541,47.566536110952825],[91.60991388931461,47.566536110952825],[91.60991388931461,47.564275000391035],[91.61126944462922,47.564275000391035],[91.61126944462922,47.55043333333174],[91.56561666677578,47.55043333333174],[91.56561666677578,47.56278888869633],[91.57756111145619,47.56278888869633],[91.57756111145619,47.55810833293327],[91.57713055563067,47.55810833293327],[91.57713055563067,47.557394444797865],[91.57791666652099,47.557394444797865],[91.57791666652099,47.56278888869633],[91.57921944422202,47.56278888869633],[91.57921944422202,47.56203888918344],[91.58107777811705,47.56203888918344],[91.58107777811705,47.563324999749],[91.56561666677578,47.563324999749],[91.56561666677578,47.596513889004825],[91.59087499968155,47.596513889004825],[91.59087499968155,47.59701388868007],[91.60218333319432,47.59701388868007],[91.60218333319432,47.596763888842474],[91.60444444465543,47.596763888842474],[91.60444444465543,47.598269444779135],[91.60384166685952,47.598269444779135],[91.60384166685952,47.59822777739009],[91.60254166626493,47.59822777739009],[91.60254166626493,47.59758611111022],[91.56561666677578,47.59758611111022],[91.56561666677578,47.62653055554074],[91.56881666685575,47.62653055554074],[91.56881666685575,47.62674444400096],[91.57095833306067,47.62674444400096],[91.57095833306067,47.625530555290936],[91.57331388862514,47.625530555290936],[91.57331388862514,47.62531666683077],[91.57474166669465,47.62531666683077],[91.57474166669465,47.62438888933582],[91.57674166629494,47.62438888933582],[91.57674166629494,47.62324722248138],[91.58138055556822,47.62324722248138],[91.58138055556822,47.62188888916097],[91.58680555573187,47.62188888916097],[91.58680555573187,47.62153333319685],[91.59138611138002,47.62153333319685],[91.59138611138002,47.621294444483055],[91.59357777809203,47.621294444483055],[91.59357777809203,47.61975555517478],[91.59539999971025,47.61975555517478],[91.59539999971025,47.62171388918472],[91.59166111147118,47.62171388918472],[91.59166111147118,47.626386110930355],[91.5879499996928,47.626386110930355],[91.5879499996928,47.62703055521598],[91.58695555545455,47.62703055521598],[91.58695555545455,47.633066666293644],[91.58495277784846,47.633066666293644],[91.58495277784846,47.63209722230903],[91.58672222185311,47.63209722230903],[91.58672222185311,47.62703055521598],[91.58380833298821,47.62703055521598],[91.58380833298821,47.6278861108554],[91.58138055556822,47.6278861108554],[91.58138055556822,47.62881388924967],[91.57774166654474,47.62881388924967],[91.57774166654474,47.629813888600154],[91.57517222252011,47.629813888600154],[91.57517222252011,47.63081388884996],[91.57288611080543,47.63081388884996],[91.57288611080543,47.631597222633786],[91.5689611114662,47.631597222633786],[91.5689611114662,47.633066666293644],[91.56561666677578,47.633066666293644],[91.56561666677578,47.640091666497256],[91.56867500025112,47.640091666497256],[91.56867500025112,47.63738055586799],[91.57888333339918,47.63738055586799],[91.57888333339918,47.64294722263628],[91.57388611105523,47.64294722263628],[91.57388611105523,47.64558888851644],[91.56561666677578,47.64558888851644],[91.56561666677578,47.64887222247512],[91.57167222209546,47.64887222247512],[91.57167222209546,47.65470555531715],[91.59122777763986,47.65470555531715],[91.591216666516,47.65151388925466],[91.58851944411714,47.65151388925466]]]}},{"type":"Feature","id":"context-license:19","properties":{"OBJECTID_1":"19","ID":"23250","LIC_STATUS":"2","AREANAME":"Shar bulag-2","AREANAME_L":"Шар булаг-2","HOL_REG":"0","num":"8506","LICENSE":"XV-023250","project":"External licence reference","sensor":"Base / Control","plannedActual":"reference","status":"confirmed","contextOnly":true,"displayCrs":"EPSG:4326","sourceCrs":"EPSG:4326","crsVerified":true,"layer":"Context_Licence_Boundary","dataType":"licence_context"},"geometry":{"type":"Polygon","coordinates":[[[96.2625111112988,46.012511110999014],[96.2501222225626,46.012511110999014],[96.2501222225626,46.015388888486484],[96.25020000042974,46.015388888486484],[96.25035833327053,46.01539722250385],[96.25051666701063,46.01540833362776],[96.2506722218456,46.015430555875525],[96.25082499957415,46.01545555522972],[96.25097500019615,46.015488888601396],[96.25112222191308,46.01553055599044],[96.25126666652352,46.01557499958659],[96.25140555512235,46.01562777809954],[96.25272499995884,46.016158333140595],[96.25392222243266,46.016347222246566],[96.2540638890373,46.01636944449433],[96.25419999963032,46.01639999986014],[96.25433611112271,46.016436111237624],[96.25446944460924,46.01647777772729],[96.25606388863758,46.01700833366772],[96.25785555578932,46.01738888898609],[96.25800555551206,46.01742500036352],[96.25815277812825,46.01746666685324],[96.25829722183937,46.017513888455255],[96.25843333333171,46.01756666696815],[96.2585666668183,46.01762777769983],[96.25869444429321,46.017691666437315],[96.25881666665589,46.01776388919217],[96.25931111121889,46.0180694446492],[96.26191666662095,46.018550000082485],[96.26206666634363,46.01858055544835],[96.26221111095407,46.018619444831586],[96.2623527775587,46.01866111132131],[96.26249166705685,46.018711110929075],[96.26262499964406,46.01876666654846],[96.26275555512484,46.01882500017365],[96.26287777748752,46.01889166691694],[96.2629944447379,46.018961110766725],[96.26310555597667,46.019036111527384],[96.26439999966033,46.019969444134574],[96.26444444415586,46.02000277750625],[96.26680555573188,46.02179166665212],[96.26689444472288,46.02186388850771],[96.26697777770232,46.02193611126256],[96.26933333326679,46.02415000022239],[96.27072222195306,46.02500833296824],[96.27089722192932,46.02508611083539],[96.27508611113518,46.02508611083539],[96.27508611113518,46.02087500028108],[96.26672499985892,46.02087500028108],[96.26672499985892,46.01672499955913],[96.2625111112988,46.01672499955913],[96.2625111112988,46.012511110999014]]]}},{"type":"Feature","id":"context-license:20","properties":{"OBJECTID_1":"20","ID":"8606","LIC_STATUS":"2","AREANAME":"Toogiin tal","AREANAME_L":"Тоогийн тал","HOL_REG":"0","num":"8606","LICENSE":"8606","project":"External licence reference","sensor":"Base / Control","plannedActual":"reference","status":"confirmed","contextOnly":true,"displayCrs":"EPSG:4326","sourceCrs":"EPSG:4326","crsVerified":true,"layer":"Context_Licence_Boundary","dataType":"licence_context"},"geometry":{"type":"Polygon","coordinates":[[[112.4500000001999,45.41664166687946],[112.45062777735006,45.4087666670481],[112.49997499984647,45.40877777817195],[112.49999444408843,45.350486110845395],[112.45603611127763,45.367424999863886],[112.3444499998676,45.3720277777598],[112.21511388919464,45.34791944482657],[112.21040277806583,45.33333333336668],[111.93505555576934,45.33333333336668],[111.84873333327675,45.39321388871002],[111.85338333367395,45.4167249998589],[112.4500000001999,45.41664166687946]]]}},{"type":"Feature","id":"context-license:21","properties":{"OBJECTID_1":"21","ID":"8607","LIC_STATUS":"2","AREANAME":"Burgastiin belchir","AREANAME_L":"Бургастын бэлчир","HOL_REG":"0","num":"8607","LICENSE":"8607","project":"External licence reference","sensor":"Base / Control","plannedActual":"reference","status":"confirmed","contextOnly":true,"displayCrs":"EPSG:4326","sourceCrs":"EPSG:4326","crsVerified":true,"layer":"Context_Licence_Boundary","dataType":"licence_context"},"geometry":{"type":"Polygon","coordinates":[[[90.87154444422077,48.533883333449126],[90.87156944447435,48.533144444160826],[90.87034999975276,48.53314722216663],[90.87037500000628,48.53242777801961],[90.8699111108092,48.531622221988016],[90.86982499982395,48.53148055538338],[90.86975555597417,48.53135277790841],[90.86807222205545,48.52843611103776],[90.86812222256259,48.52699722184434],[90.86739722240395,48.52446944430949],[90.86636111077672,48.52445277807328],[90.86624166641985,48.52704444434568],[90.86101388848022,48.523280555853034],[90.86042499981397,48.520047222401445],[90.85942499956411,48.520030555265976],[90.85943611068802,48.51967222219537],[90.8562777779971,48.517105555277226],[90.85465277770356,48.51708055592297],[90.85466388882747,48.516722221953046],[90.84668333376891,48.51264444488527],[90.84585833349536,48.512058333325456],[90.84580555588178,48.512027777959645],[90.84574166624498,48.51198888857641],[90.84566111127134,48.51193611096278],[90.84558888851643,48.51189166646731],[90.84551388865509,48.511838888853674],[90.8454499999176,48.511791666352394],[90.84540000030984,48.51175555587423],[90.84531666643107,48.51169166623748],[90.84524999968778,48.51163888862385],[90.84513611134253,48.51154444452055],[90.84254444417081,48.50970277776105],[90.8415083334429,48.5096861115249],[90.84112500011872,48.50896111136626],[90.84071944454678,48.508955555354646],[90.84070833342292,48.509313889324574],[90.83968333291955,48.50930000019491],[90.83970833317312,48.50858055514857],[90.84093611101275,48.508600000289846],[90.83884166640985,48.50461111131381],[90.83647222261504,48.50265000019738],[90.82354166681455,48.5101305555807],[90.8446750001512,48.52376388929213],[90.84460000028986,48.525922222632516],[90.84653055514104,48.5288305554858],[90.85546388884745,48.52896388897233],[90.86512222181312,48.53162777799963],[90.86698055570815,48.5366944441933],[90.8684888887513,48.536716666441066],[90.87154444422077,48.533883333449126]]]}},{"type":"Feature","id":"context-license:22","properties":{"OBJECTID_1":"22","ID":"8707","LIC_STATUS":"2","AREANAME":"Bituu ergiin khundii","AREANAME_L":"Битүү эргийн хөндий","HOL_REG":"0","num":"8707","LICENSE":"8707","project":"External licence reference","sensor":"Base / Control","plannedActual":"reference","status":"confirmed","contextOnly":true,"displayCrs":"EPSG:4326","sourceCrs":"EPSG:4326","crsVerified":true,"layer":"Context_Licence_Boundary","dataType":"licence_context"},"geometry":{"type":"Polygon","coordinates":[[[91.20916111079669,48.640883333199326],[91.20919722217411,48.61336666683826],[91.22953888860889,48.61337499995636],[91.2295444446205,48.60690277794089],[91.1773388888787,48.60686944456927],[91.17734722199674,48.603630555106065],[91.15261944413209,48.60360277774606],[91.15261944413209,48.61814722181691],[91.1503583335703,48.61814722181691],[91.1503583335703,48.603599999740254],[91.11971944409714,48.603566666368636],[91.119730555221,48.599788888746275],[91.10617222227029,48.59976944450432],[91.10619722252386,48.59268333356903],[91.09331944433694,48.5927166669407],[91.09328333295952,48.602447222661226],[91.0966722221454,48.60245277777352],[91.09664444478534,48.61054722207672],[91.10206944404968,48.610555555194765],[91.10202222244766,48.623505555237216],[91.10919166636239,48.62351388925464],[91.10919166636239,48.61838611142997],[91.11073888878872,48.61838611142997],[91.11073888878872,48.62351666636113],[91.11897777770236,48.62352777748498],[91.11896666657844,48.62730555510734],[91.14948888880122,48.627344444490575],[91.14947499967155,48.63327777744752],[91.1827138885352,48.633311110819136],[91.1827000003048,48.64086388895737],[91.1883111106693,48.640869444069665],[91.1883111106693,48.63575555537466],[91.1902138890598,48.63575555537466],[91.1902138890598,48.640869444069665],[91.20916111079669,48.640883333199326]]]}},{"type":"Feature","id":"context-license:23","properties":{"OBJECTID_1":"23","ID":"8718","LIC_STATUS":"2","AREANAME":"Suujiin bulag","AREANAME_L":"Сүүжийн булаг","HOL_REG":"0","num":"8718","LICENSE":"8718","project":"External licence reference","sensor":"Base / Control","plannedActual":"reference","status":"confirmed","contextOnly":true,"displayCrs":"EPSG:4326","sourceCrs":"EPSG:4326","crsVerified":true,"layer":"Context_Licence_Boundary","dataType":"licence_context"},"geometry":{"type":"Polygon","coordinates":[[[96.37091111085914,45.86669999960537],[96.37091111085914,45.862488889051065],[96.37512222231277,45.862488889051065],[96.37512222231277,45.85827499959163],[96.3917249996091,45.85827499959163],[96.3917249996091,45.854308333762674],[96.39587500033105,45.854308333762674],[96.39587500033105,45.85009722230899],[96.40429722233898,45.85009722230899],[96.40429722233898,45.84588611085536],[96.40832499979894,45.84588611085536],[96.40832499979894,45.84167500030105],[96.42089722252888,45.84167500030105],[96.42089722252888,45.8375249995791],[96.42907777781727,45.8375249995791],[96.42907777781727,45.833313889024794],[96.41247499962162,45.833313889024794],[96.41247499962162,45.82928333355903],[96.41668611107525,45.82928333355903],[96.41668611107525,45.825072222105405],[96.38751111104898,45.825072222105405],[96.38751111104898,45.82928333355903],[96.37512222231277,45.82928333355903],[96.37512222231277,45.833313889024794],[96.3624888888512,45.833313889024794],[96.3624888888512,45.8375249995791],[96.36670000030483,45.8375249995791],[96.36670000030483,45.84588611085536],[96.35827500029109,45.84588611085536],[96.35827500029109,45.8375249995791],[96.35430833356281,45.8375249995791],[96.35430833356281,45.84167500030105],[96.35009722210918,45.84167500030105],[96.35009722210918,45.85009722230899],[96.34588611155488,45.85009722230899],[96.34588611155488,45.862488889051065],[96.35009722210918,45.862488889051065],[96.35009722210918,45.86669999960537],[96.37091111085914,45.86669999960537]]]}},{"type":"Feature","id":"context-license:24","properties":{"OBJECTID_1":"24","ID":"8812","LIC_STATUS":"2","AREANAME":"Hetsuu hotgor","AREANAME_L":"Хэцүү хотгор","HOL_REG":"0","num":"8812","LICENSE":"8812","project":"External licence reference","sensor":"Base / Control","plannedActual":"reference","status":"confirmed","contextOnly":true,"displayCrs":"EPSG:4326","sourceCrs":"EPSG:4326","crsVerified":true,"layer":"Context_Licence_Boundary","dataType":"licence_context"},"geometry":{"type":"Polygon","coordinates":[[[92.11776666679827,45.83371388858512],[92.11776666679827,45.829988888576395],[92.11978888864633,45.829988888576395],[92.11978888864633,45.83371388858512],[92.15548333318935,45.83371388858512],[92.15548333318935,45.82179722216415],[92.15726666632366,45.82179722216415],[92.15726666632366,45.83371388858512],[92.24986111150116,45.83371111147869],[92.24986111150116,45.814672221845626],[92.24167777820696,45.813049999557904],[92.23392777784471,45.79963055520602],[92.22476111143618,45.79963055520602],[92.22476111143618,45.79487499958162],[92.21748333338917,45.79487499958162],[92.21748333338917,45.78919722247389],[92.2003166667808,45.78345277772354],[92.19179722266375,45.78027222188558],[92.17708333372894,45.78307777751746],[92.15513055523098,45.7879777777523],[92.1383805553184,45.79208611108521],[92.13247499972152,45.79354166651473],[92.12526388931713,45.795980555957954],[92.11049444476288,45.80156944407463],[92.09661944433196,45.80562499979396],[92.09272222235273,45.806936111512414],[92.08621111095408,45.81095833296075],[92.08316111149617,45.813241666669626],[92.08006111153111,45.81437222240021],[92.08005000040725,45.81437500040602],[92.07844444435568,45.8149583330607],[92.07413611079295,45.81647222211541],[92.07161111126385,45.81881944456177],[92.0660916669969,45.8247138890348],[92.06405555511981,45.824980555108596],[92.06056388871258,45.82608333347912],[92.05620277753621,45.82934722229652],[92.05419722192431,45.83175000036226],[92.05175555537465,45.83297500019614],[92.0490805552235,45.83371666659093],[92.11776666679827,45.83371388858512]]]}}]}