{"type":"FeatureCollection","name":"Verified project DJI FlightRecord trajectories","project":"Multi-project operations","scope":"project_operations","dataType":"actual_flight_track","featureCount":3,"features":[{"type":"Feature","id":"buduunkhad-dji-202606201229-028-b33","properties":{"project":"Buduunkhad","projectKey":"buduunkhad","area":"Бүдүүн хад","licence":"XV-023222","sensor":"L2","mission":"DJI_202606201229_028_B33","trackerId":"buduunkhad:115","dataType":"actual_flight_track","plannedActual":"actual","status":"confirmed_source","contextOnly":true,"trajectoryAvailable":true,"date":"2026-06-20","startTime":"2026-06-20T12:31:37+08:00","sourceFile":"DJIFlightRecord_2026-06-20_[12-31-37].kmz","sourceUrl":"https://drive.google.com/file/d/1zqFcmKbkY6yocNR-x5EHaDmb0OpUqYHT/view","sourceKind":"DJI FlightRecord trajectory export","flightRecordVerified":true,"sourceCrs":"EPSG:4326","displayCrs":"EPSG:4326","crsVerified":true,"pointCount":1998,"coverageSwathWidthM":50.0},"geometry":{"type":"LineString","coordinates":[[96.68698476,45.95786466],[96.68726732,45.95695155],[96.68688162,45.95695043],[96.68726519,45.95695034],[96.66127137,45.95694697],[96.6618453,45.9567022],[96.68765938,45.95670556],[96.68766277,45.95645998],[96.66241693,45.95645877],[96.6629851,45.95621334],[96.68766935,45.95621599],[96.68767444,45.95597243],[96.68760782,45.9559712],[96.66355274,45.95596893],[96.66415321,45.95572397],[96.68767793,45.9557271],[96.68766627,45.95548262],[96.6646986,45.95547913],[96.66526745,45.95523482],[96.68767415,45.95523694],[96.68769431,45.95499244],[96.68736474,45.95499523],[96.68739619,45.95498894],[96.68698421,45.95786396]]}},{"type":"Feature","id":"buduunkhad-dji-202606201304-029-b33","properties":{"project":"Buduunkhad","projectKey":"buduunkhad","area":"Бүдүүн хад","licence":"XV-023222","sensor":"L2","mission":"DJI_202606201304_029_B33","trackerId":"buduunkhad:116","dataType":"actual_flight_track","plannedActual":"actual","status":"confirmed_source","contextOnly":true,"trajectoryAvailable":true,"date":"2026-06-20","startTime":"2026-06-20T13:05:55+08:00","sourceFile":"DJIFlightRecord_2026-06-20_[13-05-55].kmz","sourceUrl":"https://drive.google.com/file/d/15PfSq4iBqASovU-u5dRXnkG2-scYVg3C/view","sourceKind":"DJI FlightRecord trajectory export","flightRecordVerified":true,"sourceCrs":"EPSG:4326","displayCrs":"EPSG:4326","crsVerified":true,"pointCount":2523,"coverageSwathWidthM":50.0},"geometry":{"type":"LineString","coordinates":[[96.68698386,45.95786293],[96.68743694,45.9549932],[96.66584202,45.95499122],[96.66640983,45.9547448],[96.68770136,45.954747],[96.68770543,45.95450234],[96.66698369,45.95450014],[96.66755075,45.95425614],[96.6877116,45.95425924],[96.68771423,45.95401401],[96.66812846,45.95401065],[96.66869287,45.95376598],[96.68772111,45.95376949],[96.68772401,45.95352498],[96.66926177,45.95352102],[96.66982778,45.95327957],[96.66993806,45.95327698],[96.68773083,45.9532784],[96.68773457,45.95303454],[96.67040396,45.95303141],[96.67097272,45.95278852],[96.68773917,45.95279],[96.68773903,45.95254533],[96.68733759,45.952547],[96.68698267,45.95786332]]}},{"type":"Feature","id":"buduunkhad-dji-202606201352-030-b33","properties":{"project":"Buduunkhad","projectKey":"buduunkhad","area":"Бүдүүн хад","licence":"XV-023222","sensor":"L2","mission":"DJI_202606201352_030_B33","trackerId":"buduunkhad:117","dataType":"actual_flight_track","plannedActual":"actual","status":"confirmed_source","contextOnly":true,"trajectoryAvailable":true,"date":"2026-06-20","startTime":"2026-06-20T13:54:39+08:00","sourceFile":"DJIFlightRecord_2026-06-20_[13-54-39].kmz","sourceUrl":"https://drive.google.com/file/d/1Cj2DBsXVBpuA2bsRrCkEcPCPlnT3QPlo/view","sourceKind":"DJI FlightRecord trajectory export","flightRecordVerified":true,"sourceCrs":"EPSG:4326","displayCrs":"EPSG:4326","crsVerified":true,"pointCount":2777,"coverageSwathWidthM":50.0},"geometry":{"type":"LineString","coordinates":[[96.68698306,45.95786256],[96.68735079,45.9525466],[96.67154599,45.95254275],[96.67211539,45.95229837],[96.68775151,45.95230049],[96.68775375,45.95205543],[96.67268941,45.95205336],[96.67325769,45.9518097],[96.68776117,45.95181071],[96.68776534,45.95156634],[96.67382584,45.95156438],[96.67443322,45.95131922],[96.6877715,45.95132235],[96.68777435,45.95107637],[96.67535809,45.95107534],[96.67574599,45.95107597],[96.67536053,45.95107876],[96.67753367,45.9543795],[96.68698207,45.95786224]]}}]}