{"type":"FeatureCollection","name":"hus_nu_plan","features":[{"type":"Feature","id":1,"properties":{"fid":1,"id":null,"layer":"hus_nu_plan","source_epsg":32649,"area_m2":23578119.69},"geometry":{"type":"MultiPolygon","coordinates":[[[[113.51164346,49.17788869],[113.53403823,49.1778239],[113.53412937,49.17236087],[113.56948156,49.17236801],[113.54540851,49.14002595],[113.53740838,49.14002011],[113.53735521,49.14260011],[113.52792268,49.1426251],[113.52777879,49.13434566],[113.53568102,49.13426329],[113.53570389,49.13072523],[113.54332997,49.13067875],[113.54323101,49.12151846],[113.518827,49.12156837],[113.48246639,49.12174356],[113.48265561,49.13108393],[113.49589544,49.14614988],[113.49597667,49.14629375],[113.49616145,49.14628976],[113.51164346,49.17788869]]]]}}]}