{"type":"FeatureCollection","name":"L flight plans","plans":[{"label":"L01","date":"2026-09-05","feature_count":1},{"label":"L02","date":"2026-09-05","feature_count":1},{"label":"L03","date":"2026-09-05","feature_count":1},{"label":"L04","date":"2026-09-05","feature_count":1},{"label":"L05","date":"2026-09-06","feature_count":1},{"label":"L06","date":"2026-09-06","feature_count":1},{"label":"L07","date":"2026-09-06","feature_count":1},{"label":"L08","date":"2026-09-06","feature_count":1},{"label":"L09","date":"2026-09-06","feature_count":1},{"label":"L10","date":"2026-09-06","feature_count":1},{"label":"L11","date":"2026-09-06","feature_count":1}],"features":[{"type":"Feature","id":"L01:1","properties":{"layer":"L_Plan","plan":"L01","date":"2026-09-05"},"geometry":{"type":"LineString","coordinates":[[113.520133,49.216769],[113.494078,49.216756],[113.49407736,49.21720558],[113.52195818,49.21721927],[113.52195817,49.21766885],[113.49407672,49.21765516]]}},{"type":"Feature","id":"L02:1","properties":{"layer":"L_Plan","plan":"L02","date":"2026-09-05"},"geometry":{"type":"LineString","coordinates":[[113.49407608,49.21810474],[113.52195817,49.21811842],[113.52195817,49.218568],[113.49407544,49.21855433],[113.4940748,49.21900391],[113.52195817,49.21901758]]}},{"type":"Feature","id":"L03:1","properties":{"layer":"L_Plan","plan":"L03","date":"2026-09-05"},"geometry":{"type":"LineString","coordinates":[[113.52195817,49.21946716],[113.49407416,49.21945349],[113.49407352,49.21990307],[113.52195816,49.21991673],[113.52195816,49.22036631],[113.49407288,49.22035265]]}},{"type":"Feature","id":"L04:1","properties":{"layer":"L_Plan","plan":"L04","date":"2026-09-05"},"geometry":{"type":"LineString","coordinates":[[113.49407224,49.22080223],[113.52195816,49.22081589],[113.52195816,49.22126546],[113.4940716,49.22125181],[113.49407096,49.22170139],[113.52195816,49.22171504]]}},{"type":"Feature","id":"L05:1","properties":{"layer":"L_Plan","plan":"L05","date":"2026-09-06"},"geometry":{"type":"LineString","coordinates":[[113.52195816,49.22216462],[113.49407032,49.22215097],[113.49406968,49.22260056],[113.52195816,49.2226142],[113.52195816,49.22306377],[113.49406904,49.22305014]]}},{"type":"Feature","id":"L06:1","properties":{"layer":"L_Plan","plan":"L06","date":"2026-09-06"},"geometry":{"type":"LineString","coordinates":[[113.4940684,49.22349972],[113.52195816,49.22351335],[113.52195816,49.22396293],[113.49406776,49.2239493],[113.49406712,49.22439888],[113.52195816,49.2244125]]}},{"type":"Feature","id":"L07:1","properties":{"layer":"L_Plan","plan":"L07","date":"2026-09-06"},"geometry":{"type":"LineString","coordinates":[[113.52195816,49.22486208],[113.49406648,49.22484846],[113.49406585,49.22529804],[113.52195816,49.22531166],[113.52195816,49.22576124],[113.49406521,49.22574762]]}},{"type":"Feature","id":"L08:1","properties":{"layer":"L_Plan","plan":"L08","date":"2026-09-06"},"geometry":{"type":"LineString","coordinates":[[113.49406457,49.2261972],[113.52195816,49.22621081],[113.52195816,49.22666039],[113.49418014,49.22664685],[113.49479124,49.2270968],[113.52195816,49.22710997]]}},{"type":"Feature","id":"L09:1","properties":{"layer":"L_Plan","plan":"L09","date":"2026-09-06"},"geometry":{"type":"LineString","coordinates":[[113.49540235,49.22754675],[113.52195816,49.22755954],[113.52195816,49.22800912],[113.51078435,49.22800448],[113.51081181,49.22845408],[113.52195816,49.2284587],[113.52195816,49.22890827],[113.51081181,49.22890365],[113.51081181,49.22935323],[113.52195816,49.22935785]]}},{"type":"Feature","id":"L10:1","properties":{"layer":"L_Plan","plan":"L10","date":"2026-09-06"},"geometry":{"type":"LineString","coordinates":[[113.52195817,49.22980743],[113.51081181,49.22980281],[113.51081181,49.23025239],[113.52195817,49.230257],[113.52195817,49.23070658],[113.51081181,49.23070197],[113.51081181,49.23115155],[113.52195817,49.23115616],[113.52195817,49.23160573],[113.51081181,49.23160112],[113.51081181,49.2320507],[113.52195818,49.23205531]]}},{"type":"Feature","id":"L11:1","properties":{"layer":"L_Plan","plan":"L11","date":"2026-09-06"},"geometry":{"type":"LineString","coordinates":[[113.52195818,49.23250489],[113.51081181,49.23250028],[113.51081181,49.23294986],[113.52195818,49.23295446],[113.52195818,49.23340404],[113.51081181,49.23339944],[113.51081181,49.23384901],[113.52195819,49.23385362],[113.52195819,49.23430319],[113.51081181,49.23429859],[113.51078435,49.23464495],[113.52198566,49.23464495]]}}]}