{"type":"FeatureCollection","name":"23099_uchastic_20260806","features":[{"type":"Feature","id":"license:1","properties":{"OBJECTID":"1","ID":"0","AREA_HA":"3.89990000000e+02","PERIM_KM":"8.59000000000e+00","CENTR_X":"6.72071600000e+05","CENTR_Y":"5.44578870000e+06","name":"Сант","Shape_Leng":"8.58991448805e+03","Shape_Area":"3.89988311023e+06","layer":"Additional_Licenses"},"geometry":{"type":"Polygon","coordinates":[[[113.344411,49.133159],[113.344983,49.150942],[113.358172,49.150567],[113.35818,49.147066],[113.371674,49.147078],[113.37168,49.144042],[113.37666,49.144046],[113.37668,49.133082],[113.344411,49.133159]]]}},{"type":"Feature","id":"license:2","properties":{"OBJECTID":"2","ID":"0","AREA_HA":"2.81490000000e+02","PERIM_KM":"7.23600000000e+00","CENTR_X":"6.74840500000e+05","CENTR_Y":"5.44207940000e+06","name":"Харгант-2","Shape_Leng":"7.23622066262e+03","Shape_Area":"2.81486724092e+06","layer":"Additional_Licenses"},"geometry":{"type":"Polygon","coordinates":[[[113.38233,49.100549],[113.38218,49.114085],[113.396676,49.114095],[113.39668,49.111594],[113.408675,49.111601],[113.40868,49.108045],[113.41118,49.108046],[113.41118,49.100546],[113.38233,49.100549]]]}},{"type":"Feature","id":"license:3","properties":{"OBJECTID":"3","ID":"0","AREA_HA":"5.62890000000e+02","PERIM_KM":"1.46820000000e+01","CENTR_X":"6.75448300000e+05","CENTR_Y":"5.44525360000e+06","name":"Сант--2","Shape_Leng":"1.46815751257e+04","Shape_Area":"5.62887342493e+06","layer":"Additional_Licenses"},"geometry":{"type":"Polygon","coordinates":[[[113.384696,49.125087],[113.38468,49.135086],[113.400177,49.135096],[113.40018,49.133096],[113.408685,49.133101],[113.40868,49.138101],[113.396184,49.138094],[113.39618,49.141595],[113.385689,49.141588],[113.38568,49.147088],[113.415917,49.146998],[113.415917,49.143994],[113.419486,49.143994],[113.419486,49.140781],[113.421389,49.140781],[113.421389,49.135189],[113.423896,49.135189],[113.424715,49.13266],[113.426031,49.129821],[113.426031,49.124244],[113.41418,49.125105],[113.384696,49.125087]]]}},{"type":"Feature","id":"license:4","properties":{"OBJECTID":"4","ID":"0","AREA_HA":"6.47890000000e+02","PERIM_KM":"1.04670000000e+01","CENTR_X":"6.77789600000e+05","CENTR_Y":"5.44249820000e+06","name":"Харгант","Shape_Leng":"1.04670534848e+04","Shape_Area":"6.47890747458e+06","layer":"Additional_Licenses"},"geometry":{"type":"Polygon","coordinates":[[[113.414104,49.100567],[113.414104,49.118638],[113.45826,49.118638],[113.45826,49.100567],[113.414104,49.100567]]]}},{"type":"Feature","id":"license:5","properties":{"OBJECTID":"5","ID":"0","AREA_HA":"1.66450000000e+02","PERIM_KM":"5.40100000000e+00","CENTR_X":"6.80655700000e+05","CENTR_Y":"5.45751490000e+06","name":"Уртын гол","Shape_Leng":"5.63674591187e+03","Shape_Area":"1.85298376644e+06","layer":"Additional_Licenses"},"geometry":{"type":"Polygon","coordinates":[[[113.47144277,49.23785118],[113.47202625,49.24953409],[113.49502959,49.24903929],[113.495003,49.244264],[113.488879,49.240539],[113.487722,49.239477],[113.483439,49.239553],[113.483439,49.237839],[113.47144277,49.23785118]]]}},{"type":"Feature","id":"license:6","properties":{"OBJECTID":"6","ID":"0","AREA_HA":"1.27180000000e+02","PERIM_KM":"4.52500000000e+00","CENTR_X":"6.81721400000e+05","CENTR_Y":"5.44449030000e+06","name":"Скарн","Shape_Leng":"4.52517251810e+03","Shape_Area":"1.27184245392e+06","layer":"Additional_Licenses"},"geometry":{"type":"Polygon","coordinates":[[[113.482541,49.121673],[113.482541,49.131042],[113.499265,49.131042],[113.499265,49.121673],[113.482541,49.121673]]]}},{"type":"Feature","id":"license:7","properties":{"OBJECTID":"7","ID":"0","AREA_HA":"3.08680000000e+02","PERIM_KM":"7.94300000000e+00","CENTR_X":"6.82730100000e+05","CENTR_Y":"5.45539320000e+06","name":"Хэсэг-Уул","Shape_Leng":"7.94282994535e+03","Shape_Area":"3.08678134914e+06","layer":"Additional_Licenses"},"geometry":{"type":"Polygon","coordinates":[[[113.494078,49.226504],[113.495864,49.227819],[113.510853,49.227819],[113.510853,49.2346],[113.521917,49.2346],[113.521917,49.217111],[113.520133,49.217111],[113.520133,49.216769],[113.494078,49.216756],[113.494078,49.226504]]]}},{"type":"Feature","id":"license:8","properties":{"OBJECTID":"8","ID":"0","AREA_HA":"2.32030000000e+02","PERIM_KM":"6.41600000000e+00","CENTR_X":"6.84589100000e+05","CENTR_Y":"5.44471100000e+06","name":"Магнетит","Shape_Leng":"6.41561179353e+03","Shape_Area":"2.32030613441e+06","layer":"Additional_Licenses"},"geometry":{"type":"Polygon","coordinates":[[[113.543329,49.128624],[113.543272,49.121496],[113.518843,49.121562],[113.518798,49.13433],[113.527852,49.134302],[113.535719,49.134301],[113.535726,49.130746],[113.543334,49.13073],[113.543329,49.128624]]]}},{"type":"Feature","id":"license:9","properties":{"OBJECTID":"9","ID":"0","AREA_HA":"1.44392000000e+03","PERIM_KM":"1.78540000000e+01","CENTR_X":"6.85308700000e+05","CENTR_Y":"5.45176310000e+06","name":"Зүүн","Shape_Leng":"1.78538147231e+04","Shape_Area":"1.44392251121e+07","layer":"Additional_Licenses"},"geometry":{"type":"Polygon","coordinates":[[[113.51788309,49.18893935],[113.518087,49.205788],[113.541537,49.205496],[113.541329,49.214696],[113.542924,49.214675],[113.543167,49.213303],[113.554393,49.213194],[113.554334,49.209965],[113.562591,49.210008],[113.562592,49.198557],[113.569293,49.198575],[113.569534,49.172334],[113.534096,49.172382],[113.534021,49.177761],[113.511708,49.17794],[113.511742,49.18899],[113.517803,49.18891],[113.51788309,49.18893935]],[[113.517882,49.188849],[113.517964,49.188969],[113.51788309,49.18893935],[113.517882,49.188849]]]}}]}